{"type":"FeatureCollection","metadata":{"carrier":"Verizon","source":"FCC National Broadband Map (Broadband Data Collection), provider-reported mobile broadband coverage, H3 res-9 hexagon files","source_url":"https://broadbandmap.fcc.gov/data-download/nationwide-data","filing":"As of December 31, 2025 (BDC filing; downloaded 2026-09-26, files bdc_{12,13,37,45}_*_mobile_broadband_h3_D25)","meaning":"Shaded = the carrier reports neither 4G LTE (5/1 Mbps) nor 5G-NR (7/1 Mbps) coverage, outdoor stationary","processing":"Within 5 mi of the driving route and 3 mi of each stop; land only (US Census TIGER 2024 county minus area-water); gaps under 0.5 km2 dropped; simplified ~60 m","caveat":"FCC provider-reported coverage; real signal can be worse."},"features":[{"type":"Feature","properties":{"sqmi":15.46},"geometry":{"type":"Polygon","coordinates":[[[-79.32811,33.2768],[-79.32949,33.27563],[-79.32903,33.27389],[-79.33041,33.27273],[-79.33224,33.2733],[-79.3327,33.27503],[-79.33132,33.2762],[-79.33177,33.27793],[-79.3304,33.2791],[-79.32856,33.27853],[-79.32397,33.2803],[-79.32443,33.28203],[-79.32947,33.282],[-79.32993,33.28374],[-79.32855,33.28491],[-79.32672,33.28434],[-79.32534,33.2855],[-79.32579,33.28724],[-79.32442,33.28841],[-79.32258,33.28784],[-79.32121,33.289],[-79.32395,33.29305],[-79.32257,33.29421],[-79.32303,33.29595],[-79.32165,33.29711],[-79.3221,33.29885],[-79.32073,33.30002],[-79.32118,33.30175],[-79.3198,33.30292],[-79.32026,33.30465],[-79.31888,33.30582],[-79.31383,33.30585],[-79.31338,33.30411],[-79.31476,33.30295],[-79.31659,33.30352],[-79.3198,33.30176],[-79.31926,33.30091],[-79.31777,33.30158],[-79.31751,33.30061],[-79.31889,33.29945],[-79.31844,33.29771],[-79.3166,33.29714],[-79.31522,33.29831],[-79.31568,33.30004],[-79.31109,33.30181],[-79.31155,33.30354],[-79.31017,33.30471],[-79.30833,33.30414],[-79.30696,33.30531],[-79.30741,33.30704],[-79.30603,33.30821],[-79.3042,33.30764],[-79.30282,33.3088],[-79.30099,33.30823],[-79.30053,33.3065],[-79.29851,33.30521],[-79.30003,33.30531],[-79.30605,33.30183],[-79.30559,33.3001],[-79.30376,33.29953],[-79.3033,33.29779],[-79.30235,33.2975],[-79.30521,33.29582],[-79.30199,33.29674],[-79.30222,33.29746],[-79.30009,33.29839],[-79.29826,33.29782],[-79.29552,33.29378],[-79.3001,33.29202],[-79.29965,33.29028],[-79.30103,33.28911],[-79.30057,33.28738],[-79.29874,33.28681],[-79.29736,33.28798],[-79.29782,33.28971],[-79.29644,33.29088],[-79.29461,33.29031],[-79.29415,33.28857],[-79.29003,33.2857],[-79.28958,33.28396],[-79.29096,33.2828],[-79.2905,33.28106],[-79.28867,33.28049],[-79.28821,33.27876],[-79.2841,33.27588],[-79.28364,33.27414],[-79.28502,33.27298],[-79.28456,33.27124],[-79.28273,33.27067],[-79.27815,33.27244],[-79.27631,33.27187],[-79.27586,33.27013],[-79.27643,33.26965],[-79.27792,33.27133],[-79.2801,33.27014],[-79.28062,33.26831],[-79.27795,33.26879],[-79.27918,33.2662],[-79.27688,33.2676],[-79.27495,33.26666],[-79.27365,33.26776],[-79.27149,33.26535],[-79.27267,33.26436],[-79.2745,33.26492],[-79.27587,33.26376],[-79.27542,33.26202],[-79.27038,33.26205],[-79.26993,33.26031],[-79.2713,33.25915],[-79.27085,33.25741],[-79.27223,33.25625],[-79.27177,33.25451],[-79.26994,33.25394],[-79.26949,33.25221],[-79.27087,33.25104],[-79.27041,33.2493],[-79.27182,33.24876],[-79.27271,33.24524],[-79.27454,33.24581],[-79.27592,33.24464],[-79.27547,33.2429],[-79.27684,33.24174],[-79.27639,33.24],[-79.28097,33.23824],[-79.28052,33.2365],[-79.2819,33.23534],[-79.28144,33.2336],[-79.28282,33.23243],[-79.28237,33.2307],[-79.28374,33.22953],[-79.28557,33.2301],[-79.28695,33.22893],[-79.2865,33.2272],[-79.28787,33.22603],[-79.28971,33.2266],[-79.29108,33.22543],[-79.29063,33.2237],[-79.29201,33.22253],[-79.29155,33.22079],[-79.29293,33.21963],[-79.29019,33.21559],[-79.29156,33.21442],[-79.29111,33.21268],[-79.29249,33.21152],[-79.2966,33.21439],[-79.29798,33.21322],[-79.29753,33.21149],[-79.2989,33.21032],[-79.30073,33.21089],[-79.30532,33.20912],[-79.30715,33.20969],[-79.30853,33.20852],[-79.30807,33.20679],[-79.30945,33.20562],[-79.31128,33.20619],[-79.31174,33.20793],[-79.31586,33.2108],[-79.31631,33.21253],[-79.32135,33.2125],[-79.32181,33.21424],[-79.32043,33.21541],[-79.3186,33.21484],[-79.31722,33.21601],[-79.31768,33.21774],[-79.32179,33.22062],[-79.32225,33.22235],[-79.32408,33.22292],[-79.32546,33.22175],[-79.325,33.22002],[-79.32317,33.21945],[-79.32272,33.21771],[-79.32409,33.21654],[-79.32821,33.21942],[-79.32867,33.22115],[-79.3305,33.22172],[-79.33096,33.22346],[-79.32958,33.22463],[-79.32454,33.22466],[-79.32316,33.22582],[-79.32361,33.22756],[-79.32866,33.22753],[-79.33003,33.22636],[-79.33415,33.22923],[-79.33461,33.23097],[-79.33965,33.23094],[-79.34011,33.23268],[-79.33873,33.23384],[-79.33919,33.23558],[-79.34102,33.23615],[-79.34148,33.23788],[-79.33689,33.23965],[-79.33734,33.24139],[-79.33597,33.24256],[-79.33642,33.24429],[-79.33504,33.24546],[-79.33321,33.24489],[-79.33183,33.24606],[-79.33229,33.24779],[-79.33091,33.24896],[-79.32679,33.24609],[-79.32541,33.24725],[-79.32587,33.24899],[-79.32128,33.25076],[-79.31716,33.24788],[-79.31442,33.24384],[-79.31258,33.24327],[-79.31121,33.24444],[-79.31395,33.24848],[-79.31257,33.24965],[-79.31303,33.25138],[-79.31807,33.25135],[-79.31852,33.25309],[-79.31715,33.25426],[-79.3176,33.25599],[-79.31943,33.25656],[-79.32402,33.2548],[-79.32585,33.25537],[-79.32631,33.2571],[-79.32493,33.25827],[-79.3231,33.2577],[-79.31851,33.25947],[-79.32125,33.26351],[-79.32309,33.26408],[-79.32768,33.26231],[-79.32722,33.26057],[-79.3286,33.25941],[-79.32814,33.25767],[-79.32952,33.2565],[-79.33135,33.25707],[-79.33273,33.25591],[-79.33228,33.25417],[-79.33365,33.253],[-79.33549,33.25357],[-79.33686,33.2524],[-79.33641,33.25067],[-79.33779,33.2495],[-79.33733,33.24776],[-79.33871,33.2466],[-79.33825,33.24486],[-79.33963,33.24369],[-79.33918,33.24196],[-79.34055,33.24079],[-79.34239,33.24136],[-79.34284,33.24309],[-79.34468,33.24366],[-79.34513,33.2454],[-79.34375,33.24657],[-79.34421,33.2483],[-79.33962,33.25007],[-79.34008,33.2518],[-79.3387,33.25297],[-79.33915,33.25471],[-79.33456,33.25647],[-79.33502,33.25821],[-79.33364,33.25938],[-79.3341,33.26111],[-79.33272,33.26228],[-79.33089,33.26171],[-79.32951,33.26288],[-79.32996,33.26462],[-79.32859,33.26578],[-79.32675,33.26521],[-79.32538,33.26638],[-79.32583,33.26812],[-79.32445,33.26928],[-79.32262,33.26871],[-79.32124,33.26988],[-79.32399,33.27392],[-79.32261,33.27509],[-79.32306,33.27682],[-79.3249,33.27739],[-79.32627,33.27623],[-79.32811,33.2768]],[[-79.29638,33.28263],[-79.29641,33.28192],[-79.29264,33.28284],[-79.293,33.28387],[-79.29111,33.28437],[-79.29248,33.28481],[-79.29638,33.28263]],[[-79.2966,33.27645],[-79.30085,33.27443],[-79.30058,33.27434],[-79.29602,33.27578],[-79.2966,33.27645]],[[-79.29929,33.21283],[-79.29806,33.21261],[-79.29812,33.21356],[-79.29929,33.21283]],[[-79.30483,33.21811],[-79.30492,33.21747],[-79.30336,33.21778],[-79.30327,33.21854],[-79.30483,33.21811]],[[-79.30697,33.29893],[-79.3088,33.2995],[-79.31018,33.29834],[-79.30972,33.2966],[-79.30789,33.29603],[-79.30651,33.2972],[-79.30697,33.29893]],[[-79.31157,33.2908],[-79.30974,33.29023],[-79.30836,33.29139],[-79.30881,33.29313],[-79.31065,33.2937],[-79.31203,33.29253],[-79.31157,33.2908]],[[-79.30976,33.27748],[-79.31022,33.27921],[-79.31205,33.27978],[-79.31343,33.27862],[-79.31297,33.27688],[-79.31114,33.27631],[-79.30976,33.27748]],[[-79.31303,33.20888],[-79.31209,33.20952],[-79.31221,33.20959],[-79.31303,33.20888]],[[-79.31615,33.29541],[-79.31753,33.29424],[-79.31707,33.2925],[-79.31524,33.29193],[-79.31386,33.2931],[-79.31431,33.29484],[-79.31615,33.29541]],[[-79.32214,33.27973],[-79.32168,33.27799],[-79.31985,33.27742],[-79.31847,33.27859],[-79.31893,33.28032],[-79.32076,33.28089],[-79.32214,33.27973]],[[-79.33277,33.23678],[-79.33139,33.23795],[-79.33184,33.23968],[-79.33368,33.24025],[-79.33505,33.23908],[-79.3346,33.23735],[-79.33598,33.23618],[-79.33552,33.23444],[-79.33369,33.23387],[-79.33323,33.23214],[-79.3314,33.23157],[-79.33002,33.23274],[-79.33277,33.23678]]]}},{"type":"Feature","properties":{"sqmi":14.99},"geometry":{"type":"Polygon","coordinates":[[[-76.10703,35.88656],[-76.10689,35.88492],[-76.10104,35.88438],[-76.1009,35.88273],[-76.09891,35.88201],[-76.09877,35.88036],[-76.0966,35.87972],[-76.09525,35.87748],[-76.09664,35.87799],[-76.0985,35.87708],[-76.1005,35.87781],[-76.10064,35.87945],[-76.10263,35.88018],[-76.10277,35.88182],[-76.10476,35.88255],[-76.10663,35.88164],[-76.10649,35.88],[-76.1045,35.87927],[-76.10436,35.87763],[-76.10236,35.8769],[-76.10223,35.87525],[-76.10795,35.87416],[-76.10782,35.87252],[-76.11354,35.87142],[-76.11341,35.86978],[-76.10755,35.86923],[-76.10569,35.87015],[-76.10369,35.86942],[-76.10356,35.86777],[-76.0977,35.86723],[-76.09757,35.86559],[-76.09943,35.86467],[-76.0993,35.86303],[-76.09344,35.86249],[-76.09331,35.86085],[-76.09131,35.86012],[-76.09118,35.85847],[-76.08918,35.85775],[-76.08905,35.8561],[-76.09091,35.85519],[-76.09078,35.85355],[-76.08878,35.85282],[-76.08865,35.85118],[-76.08665,35.85045],[-76.08479,35.85136],[-76.08492,35.853],[-76.08692,35.85373],[-76.08705,35.85537],[-76.08519,35.85629],[-76.08319,35.85556],[-76.08306,35.85392],[-76.08106,35.85319],[-76.08093,35.85155],[-76.07894,35.85082],[-76.07707,35.85173],[-76.07508,35.851],[-76.07494,35.84936],[-76.06909,35.84881],[-76.06896,35.84717],[-76.06696,35.84644],[-76.06683,35.8448],[-76.06484,35.84407],[-76.0647,35.84243],[-76.06657,35.84152],[-76.07242,35.84206],[-76.07428,35.84115],[-76.07415,35.83951],[-76.0683,35.83896],[-76.06816,35.83732],[-76.07002,35.83641],[-76.06989,35.83477],[-76.07175,35.83386],[-76.07162,35.83222],[-76.06577,35.83167],[-76.06564,35.83003],[-76.0675,35.82912],[-76.06737,35.82748],[-76.06923,35.82657],[-76.07508,35.82711],[-76.07694,35.8262],[-76.07893,35.82693],[-76.07907,35.82857],[-76.08106,35.8293],[-76.08292,35.82839],[-76.08492,35.82912],[-76.08678,35.82821],[-76.09263,35.82875],[-76.09449,35.82784],[-76.09649,35.82857],[-76.09662,35.83021],[-76.09861,35.83094],[-76.10433,35.82984],[-76.10633,35.83057],[-76.10646,35.83221],[-76.11231,35.83276],[-76.11245,35.8344],[-76.11444,35.83513],[-76.1163,35.83421],[-76.1183,35.83494],[-76.11843,35.83658],[-76.12043,35.83731],[-76.12614,35.83622],[-76.12814,35.83694],[-76.12828,35.83859],[-76.13413,35.83913],[-76.13426,35.84077],[-76.13626,35.8415],[-76.13812,35.84059],[-76.14012,35.84131],[-76.14025,35.84295],[-76.14225,35.84368],[-76.14411,35.84277],[-76.1461,35.8435],[-76.14624,35.84514],[-76.14824,35.84587],[-76.1501,35.84495],[-76.15209,35.84568],[-76.15223,35.84732],[-76.15423,35.84805],[-76.15436,35.84969],[-76.1525,35.85061],[-76.15264,35.85225],[-76.15463,35.85297],[-76.15477,35.85462],[-76.15677,35.85534],[-76.1569,35.85699],[-76.15504,35.8579],[-76.15518,35.85954],[-76.15331,35.86045],[-76.15132,35.85973],[-76.15118,35.85808],[-76.14918,35.85736],[-76.14905,35.85571],[-76.14705,35.85499],[-76.14692,35.85334],[-76.14878,35.85243],[-76.14864,35.85079],[-76.14665,35.85006],[-76.14479,35.85098],[-76.14492,35.85262],[-76.14306,35.85353],[-76.14319,35.85517],[-76.14519,35.8559],[-76.14533,35.85754],[-76.14732,35.85827],[-76.14746,35.85991],[-76.14174,35.86101],[-76.14187,35.86265],[-76.14387,35.86338],[-76.14401,35.86502],[-76.14215,35.86593],[-76.14228,35.86757],[-76.14428,35.8683],[-76.14441,35.86994],[-76.14255,35.87086],[-76.14269,35.8725],[-76.14468,35.87323],[-76.14482,35.87487],[-76.14682,35.8756],[-76.14868,35.87469],[-76.15068,35.87541],[-76.15081,35.87706],[-76.14509,35.87815],[-76.14523,35.8798],[-76.14722,35.88052],[-76.15295,35.87943],[-76.15494,35.88015],[-76.15508,35.8818],[-76.15708,35.88252],[-76.15721,35.88417],[-76.15535,35.88508],[-76.15335,35.88435],[-76.15322,35.88271],[-76.15122,35.88198],[-76.14936,35.88289],[-76.14949,35.88454],[-76.14763,35.88545],[-76.14777,35.88709],[-76.15363,35.88764],[-76.15376,35.88928],[-76.1519,35.89019],[-76.15203,35.89183],[-76.15403,35.89256],[-76.15417,35.89421],[-76.15231,35.89512],[-76.15244,35.89676],[-76.1583,35.8973],[-76.15844,35.89895],[-76.15271,35.90005],[-76.15071,35.89932],[-76.14885,35.90023],[-76.14899,35.90187],[-76.14712,35.90279],[-76.14513,35.90206],[-76.14326,35.90297],[-76.1434,35.90462],[-76.14154,35.90553],[-76.14167,35.90717],[-76.13981,35.90809],[-76.13395,35.90754],[-76.13381,35.9059],[-76.13181,35.90517],[-76.13168,35.90353],[-76.13354,35.90261],[-76.13341,35.90097],[-76.13141,35.90024],[-76.12568,35.90134],[-76.12582,35.90298],[-76.12395,35.9039],[-76.12409,35.90554],[-76.12223,35.90645],[-76.11636,35.90591],[-76.1145,35.90682],[-76.11464,35.90846],[-76.11277,35.90938],[-76.11077,35.90865],[-76.10891,35.90956],[-76.10691,35.90883],[-76.10678,35.90719],[-76.1125,35.90609],[-76.11237,35.90445],[-76.11037,35.90372],[-76.11024,35.90208],[-76.1121,35.90116],[-76.11196,35.89952],[-76.10997,35.89879],[-76.1081,35.8997],[-76.10824,35.90135],[-76.10637,35.90226],[-76.10438,35.90153],[-76.10424,35.89989],[-76.09838,35.89934],[-76.09825,35.8977],[-76.10011,35.89679],[-76.09998,35.89514],[-76.10184,35.89423],[-76.10384,35.89496],[-76.10956,35.89386],[-76.10943,35.89222],[-76.11129,35.89131],[-76.11116,35.88967],[-76.10916,35.88894],[-76.10903,35.88729],[-76.10703,35.88656]],[[-76.11383,35.89861],[-76.11583,35.89934],[-76.11769,35.89842],[-76.11756,35.89678],[-76.11556,35.89605],[-76.11542,35.89441],[-76.11342,35.89368],[-76.11156,35.89459],[-76.1117,35.89623],[-76.11369,35.89696],[-76.11383,35.89861]],[[-76.1141,35.90189],[-76.11423,35.90353],[-76.11623,35.90426],[-76.11809,35.90335],[-76.11796,35.90171],[-76.11596,35.90098],[-76.1141,35.90189]],[[-76.11818,35.85719],[-76.11619,35.85646],[-76.11433,35.85737],[-76.11446,35.85902],[-76.11646,35.85974],[-76.11832,35.85883],[-76.11818,35.85719]],[[-76.1231,35.84625],[-76.12296,35.8446],[-76.12482,35.84369],[-76.12469,35.84205],[-76.12269,35.84132],[-76.12083,35.84224],[-76.12097,35.84388],[-76.1191,35.84479],[-76.11924,35.84643],[-76.11738,35.84734],[-76.11751,35.84898],[-76.11951,35.84971],[-76.11964,35.85135],[-76.12164,35.85208],[-76.1235,35.85117],[-76.12337,35.84953],[-76.12137,35.8488],[-76.12124,35.84716],[-76.1231,35.84625]],[[-76.133,35.89604],[-76.13314,35.89769],[-76.13513,35.89841],[-76.14086,35.89732],[-76.14072,35.89567],[-76.13872,35.89494],[-76.133,35.89604]],[[-76.13791,35.88509],[-76.13991,35.88582],[-76.14177,35.88491],[-76.14164,35.88326],[-76.13964,35.88254],[-76.13778,35.88345],[-76.13791,35.88509]],[[-76.14391,35.88728],[-76.14204,35.88819],[-76.14218,35.88983],[-76.14418,35.89056],[-76.14604,35.88965],[-76.1459,35.88801],[-76.14391,35.88728]]]}},{"type":"Feature","properties":{"sqmi":8.62},"geometry":{"type":"Polygon","coordinates":[[[-76.11094,35.95813],[-76.11081,35.95649],[-76.11268,35.95557],[-76.11254,35.95393],[-76.11441,35.95302],[-76.11641,35.95375],[-76.11654,35.95539],[-76.11468,35.9563],[-76.11481,35.95795],[-76.12068,35.95849],[-76.12081,35.96014],[-76.11895,35.96105],[-76.11908,35.9627],[-76.12108,35.96343],[-76.12295,35.96251],[-76.12281,35.96087],[-76.12468,35.95995],[-76.12668,35.96068],[-76.12681,35.96233],[-76.12495,35.96324],[-76.12508,35.96489],[-76.12708,35.96562],[-76.12722,35.96726],[-76.12922,35.96799],[-76.12936,35.96963],[-76.13136,35.97036],[-76.13149,35.97201],[-76.12963,35.97292],[-76.12976,35.97457],[-76.13176,35.9753],[-76.1319,35.97694],[-76.13003,35.97786],[-76.13017,35.9795],[-76.13604,35.98005],[-76.13617,35.98169],[-76.13431,35.98261],[-76.13444,35.98425],[-76.13258,35.98517],[-76.13271,35.98681],[-76.13084,35.98772],[-76.12884,35.98699],[-76.12871,35.98535],[-76.13057,35.98444],[-76.13044,35.98279],[-76.12844,35.98206],[-76.1283,35.98042],[-76.1263,35.97969],[-76.12443,35.9806],[-76.12457,35.98225],[-76.12657,35.98298],[-76.12671,35.98462],[-76.12484,35.98553],[-76.12497,35.98718],[-76.11924,35.98828],[-76.11724,35.98755],[-76.11537,35.98846],[-76.1155,35.99011],[-76.11364,35.99102],[-76.10777,35.99048],[-76.10763,35.98883],[-76.1095,35.98792],[-76.10937,35.98627],[-76.10736,35.98554],[-76.10163,35.98664],[-76.10176,35.98828],[-76.0999,35.9892],[-76.09403,35.98865],[-76.09216,35.98957],[-76.09016,35.98883],[-76.09002,35.98719],[-76.08802,35.98646],[-76.08789,35.98481],[-76.08202,35.98427],[-76.08188,35.98262],[-76.07988,35.98189],[-76.07975,35.98025],[-76.07775,35.97952],[-76.07762,35.97787],[-76.07561,35.97714],[-76.07375,35.97805],[-76.07175,35.97732],[-76.07161,35.97568],[-76.06961,35.97495],[-76.06775,35.97586],[-76.06188,35.97531],[-76.06001,35.97623],[-76.05414,35.97568],[-76.05227,35.97659],[-76.05241,35.97824],[-76.05054,35.97915],[-76.04854,35.97842],[-76.04667,35.97933],[-76.04467,35.9786],[-76.04454,35.97695],[-76.03867,35.9764],[-76.03854,35.97476],[-76.04041,35.97385],[-76.04027,35.9722],[-76.03441,35.97165],[-76.03428,35.97001],[-76.04001,35.96891],[-76.03988,35.96727],[-76.03401,35.96672],[-76.03214,35.96763],[-76.03014,35.9669],[-76.02828,35.96781],[-76.02628,35.96708],[-76.02615,35.96544],[-76.03188,35.96434],[-76.03175,35.9627],[-76.02975,35.96197],[-76.02962,35.96032],[-76.02762,35.95959],[-76.02749,35.95795],[-76.03322,35.95685],[-76.03309,35.95521],[-76.03495,35.9543],[-76.03482,35.95265],[-76.04056,35.95156],[-76.04255,35.95229],[-76.04269,35.95393],[-76.04469,35.95467],[-76.04482,35.95631],[-76.05068,35.95686],[-76.05082,35.9585],[-76.05282,35.95923],[-76.05295,35.96088],[-76.05495,35.96161],[-76.05508,35.96325],[-76.05321,35.96417],[-76.05335,35.96581],[-76.05535,35.96654],[-76.05721,35.96563],[-76.06308,35.96618],[-76.06321,35.96782],[-76.06521,35.96855],[-76.06535,35.9702],[-76.06735,35.97093],[-76.06921,35.97001],[-76.06908,35.96837],[-76.06708,35.96764],[-76.06695,35.96599],[-76.06495,35.96526],[-76.06481,35.96362],[-76.06281,35.96289],[-76.06268,35.96124],[-76.06455,35.96033],[-76.06441,35.95869],[-76.06628,35.95777],[-76.06828,35.9585],[-76.06841,35.96015],[-76.07041,35.96088],[-76.07228,35.95997],[-76.07215,35.95832],[-76.07015,35.95759],[-76.07001,35.95595],[-76.07575,35.95485],[-76.07561,35.95321],[-76.07361,35.95248],[-76.07348,35.95083],[-76.06762,35.95028],[-76.06748,35.94864],[-76.06935,35.94773],[-76.07135,35.94846],[-76.07321,35.94754],[-76.07908,35.94809],[-76.07921,35.94974],[-76.08121,35.95047],[-76.08135,35.95211],[-76.08335,35.95284],[-76.08348,35.95448],[-76.08548,35.95522],[-76.08561,35.95686],[-76.08375,35.95777],[-76.08388,35.95942],[-76.08588,35.96015],[-76.08601,35.96179],[-76.08801,35.96252],[-76.09375,35.96143],[-76.09575,35.96216],[-76.09588,35.9638],[-76.09788,35.96453],[-76.10361,35.96343],[-76.10348,35.96179],[-76.10535,35.96087],[-76.10521,35.95923],[-76.10321,35.9585],[-76.10308,35.95686],[-76.10108,35.95613],[-76.10094,35.95448],[-76.09894,35.95375],[-76.09881,35.95211],[-76.10067,35.95119],[-76.10654,35.95174],[-76.10667,35.95338],[-76.10481,35.9543],[-76.10494,35.95594],[-76.10694,35.95667],[-76.10708,35.95832],[-76.10908,35.95905],[-76.11094,35.95813]],[[-76.04695,35.95868],[-76.04508,35.9596],[-76.04522,35.96124],[-76.04721,35.96197],[-76.04908,35.96106],[-76.04895,35.95942],[-76.04695,35.95868]],[[-76.05748,35.96892],[-76.05548,35.96819],[-76.05361,35.9691],[-76.05374,35.97074],[-76.05574,35.97147],[-76.05761,35.97056],[-76.05748,35.96892]],[[-76.07268,35.9649],[-76.07468,35.96563],[-76.07655,35.96472],[-76.07641,35.96307],[-76.07441,35.96234],[-76.07255,35.96325],[-76.07268,35.9649]],[[-76.07868,35.96709],[-76.08068,35.96782],[-76.08255,35.96691],[-76.08241,35.96526],[-76.08041,35.96453],[-76.07855,35.96545],[-76.07868,35.96709]],[[-76.11335,35.96379],[-76.11521,35.96288],[-76.11508,35.96124],[-76.11308,35.96051],[-76.11121,35.96142],[-76.11135,35.96306],[-76.10948,35.96398],[-76.10748,35.96325],[-76.10562,35.96416],[-76.10575,35.96581],[-76.10775,35.96654],[-76.10789,35.96818],[-76.10989,35.96891],[-76.11175,35.968],[-76.11162,35.96635],[-76.11348,35.96544],[-76.11335,35.96379]],[[-76.12162,35.97],[-76.11976,35.97092],[-76.11989,35.97256],[-76.12189,35.97329],[-76.12376,35.97238],[-76.12362,35.97073],[-76.12162,35.97]],[[-76.12589,35.97475],[-76.12403,35.97567],[-76.12416,35.97731],[-76.12616,35.97804],[-76.12803,35.97713],[-76.1279,35.97548],[-76.12589,35.97475]]]}},{"type":"Feature","properties":{"sqmi":5.85},"geometry":{"type":"Polygon","coordinates":[[[-75.94081,35.81775],[-75.93895,35.81866],[-75.9331,35.81811],[-75.93298,35.81647],[-75.93098,35.81574],[-75.93086,35.81409],[-75.92501,35.81354],[-75.92488,35.8119],[-75.9306,35.81081],[-75.93047,35.80917],[-75.92848,35.80844],[-75.92835,35.8068],[-75.92636,35.80607],[-75.9245,35.80698],[-75.92462,35.80862],[-75.92276,35.80953],[-75.92072,35.80816],[-75.92064,35.80716],[-75.92251,35.80625],[-75.92238,35.80461],[-75.92039,35.80388],[-75.92026,35.80224],[-75.91768,35.80134],[-75.91233,35.80251],[-75.91056,35.80186],[-75.91043,35.80022],[-75.90478,35.79974],[-75.90447,35.79821],[-75.91018,35.79694],[-75.91217,35.79767],[-75.9123,35.79931],[-75.91429,35.80004],[-75.91615,35.79913],[-75.91602,35.79749],[-75.91789,35.79659],[-75.92373,35.79714],[-75.92559,35.79623],[-75.93144,35.79678],[-75.9333,35.79587],[-75.93529,35.79661],[-75.93542,35.79825],[-75.93741,35.79898],[-75.94313,35.79789],[-75.94512,35.79862],[-75.94525,35.80026],[-75.94724,35.80099],[-75.95296,35.7999],[-75.95495,35.80063],[-75.95508,35.80227],[-75.95707,35.80301],[-75.95893,35.8021],[-75.96092,35.80283],[-75.96105,35.80447],[-75.96304,35.8052],[-75.96317,35.80684],[-75.96902,35.80739],[-75.96915,35.80903],[-75.97114,35.80976],[-75.973,35.80885],[-75.97499,35.80958],[-75.97512,35.81122],[-75.97712,35.81195],[-75.97725,35.81359],[-75.98309,35.81414],[-75.98322,35.81578],[-75.98136,35.81669],[-75.98149,35.81833],[-75.97963,35.81924],[-75.97976,35.82088],[-75.97789,35.82179],[-75.97802,35.82343],[-75.97616,35.82434],[-75.97629,35.82599],[-75.97443,35.8269],[-75.97456,35.82854],[-75.97269,35.82945],[-75.97282,35.83109],[-75.97096,35.832],[-75.97109,35.83364],[-75.96537,35.83473],[-75.9655,35.83637],[-75.96363,35.83728],[-75.95778,35.83673],[-75.95592,35.83764],[-75.95605,35.83928],[-75.95419,35.84019],[-75.95219,35.83946],[-75.95206,35.83781],[-75.95393,35.8369],[-75.9538,35.83526],[-75.95181,35.83453],[-75.95168,35.83289],[-75.94968,35.83216],[-75.94782,35.83307],[-75.94795,35.83471],[-75.94608,35.83562],[-75.94409,35.83489],[-75.94396,35.83325],[-75.94197,35.83252],[-75.94184,35.83088],[-75.93985,35.83014],[-75.93972,35.8285],[-75.93773,35.82777],[-75.9376,35.82613],[-75.93561,35.8254],[-75.93548,35.82376],[-75.93734,35.82285],[-75.93722,35.82121],[-75.94293,35.82012],[-75.94281,35.81848],[-75.94467,35.81757],[-75.94454,35.81593],[-75.9464,35.81502],[-75.94628,35.81338],[-75.94428,35.81265],[-75.94242,35.81356],[-75.94255,35.8152],[-75.94069,35.81611],[-75.94081,35.81775]],[[-75.93394,35.80408],[-75.9358,35.80317],[-75.93568,35.80153],[-75.93369,35.80079],[-75.93182,35.8017],[-75.93195,35.80334],[-75.93394,35.80408]]]}},{"type":"Feature","properties":{"sqmi":5.5},"geometry":{"type":"Polygon","coordinates":[[[-79.48746,33.1841],[-79.48792,33.18584],[-79.48975,33.18641],[-79.49113,33.18523],[-79.49067,33.1835],[-79.49205,33.18232],[-79.49389,33.18289],[-79.49527,33.18172],[-79.49481,33.17998],[-79.49619,33.17881],[-79.49573,33.17707],[-79.50032,33.1753],[-79.50445,33.17817],[-79.50583,33.17699],[-79.50767,33.17756],[-79.50813,33.1793],[-79.50675,33.18047],[-79.50491,33.1799],[-79.50032,33.18168],[-79.50308,33.18572],[-79.50813,33.18568],[-79.50859,33.18742],[-79.50721,33.18859],[-79.50767,33.19033],[-79.50307,33.19211],[-79.50353,33.19384],[-79.50216,33.19502],[-79.50261,33.19675],[-79.49802,33.19853],[-79.49848,33.20027],[-79.4971,33.20144],[-79.49756,33.20318],[-79.49618,33.20435],[-79.49664,33.20609],[-79.49205,33.20786],[-79.4925,33.2096],[-79.49113,33.21077],[-79.49159,33.21251],[-79.48699,33.21428],[-79.48745,33.21602],[-79.48607,33.21719],[-79.48653,33.21893],[-79.48515,33.2201],[-79.48331,33.21953],[-79.48194,33.2207],[-79.48239,33.22244],[-79.48102,33.22361],[-79.47918,33.22304],[-79.4778,33.22422],[-79.47826,33.22595],[-79.47688,33.22712],[-79.47734,33.22886],[-79.47596,33.23003],[-79.47306,33.22936],[-79.46999,33.23072],[-79.46621,33.23091],[-79.46025,33.23443],[-79.45988,33.23305],[-79.46126,33.23188],[-79.4631,33.23244],[-79.46448,33.23127],[-79.46402,33.22954],[-79.46047,33.228],[-79.45886,33.22917],[-79.45851,33.22783],[-79.45667,33.22727],[-79.45529,33.22844],[-79.453,33.22613],[-79.45437,33.22496],[-79.45392,33.22323],[-79.4553,33.22206],[-79.45713,33.22262],[-79.45851,33.22145],[-79.45805,33.21972],[-79.45943,33.21855],[-79.45668,33.2145],[-79.45806,33.21333],[-79.46219,33.2162],[-79.46357,33.21503],[-79.4654,33.2156],[-79.46586,33.21734],[-79.46127,33.21911],[-79.46173,33.22085],[-79.46678,33.22081],[-79.46816,33.21964],[-79.4677,33.21791],[-79.46908,33.21674],[-79.46862,33.215],[-79.47,33.21383],[-79.46954,33.21209],[-79.46449,33.21213],[-79.46403,33.21039],[-79.46541,33.20922],[-79.46495,33.20748],[-79.46311,33.20691],[-79.46265,33.20518],[-79.46403,33.20401],[-79.46357,33.20227],[-79.46495,33.2011],[-79.46679,33.20167],[-79.46725,33.2034],[-79.46587,33.20457],[-79.46633,33.20631],[-79.46816,33.20688],[-79.46862,33.20862],[-79.47046,33.20918],[-79.47184,33.20801],[-79.46908,33.20397],[-79.47046,33.2028],[-79.47,33.20106],[-79.47138,33.19989],[-79.47092,33.19815],[-79.46908,33.19759],[-79.46863,33.19585],[-79.46358,33.19589],[-79.46082,33.19185],[-79.46542,33.19007],[-79.46496,33.18833],[-79.46634,33.18716],[-79.46817,33.18773],[-79.46955,33.18656],[-79.46909,33.18482],[-79.47047,33.18365],[-79.47231,33.18422],[-79.4769,33.18244],[-79.47873,33.18301],[-79.48333,33.18123],[-79.48516,33.1818],[-79.48654,33.18063],[-79.48838,33.18119],[-79.48884,33.18293],[-79.48746,33.1841]],[[-79.48011,33.18822],[-79.4847,33.18644],[-79.48424,33.18471],[-79.48241,33.18414],[-79.48103,33.18531],[-79.47919,33.18474],[-79.4746,33.18652],[-79.47735,33.19056],[-79.47919,33.19113],[-79.48057,33.18996],[-79.48011,33.18822]],[[-79.49435,33.19101],[-79.49481,33.19275],[-79.49986,33.19271],[-79.50124,33.19154],[-79.49848,33.1875],[-79.49664,33.18693],[-79.49527,33.1881],[-79.49573,33.18984],[-79.49435,33.19101]]]}},{"type":"Feature","properties":{"sqmi":4.97},"geometry":{"type":"Polygon","coordinates":[[[-80.52586,32.68262],[-80.52724,32.68142],[-80.52676,32.67967],[-80.5249,32.67912],[-80.52442,32.67737],[-80.5258,32.67618],[-80.52531,32.67443],[-80.52669,32.67323],[-80.52855,32.67378],[-80.52993,32.67258],[-80.53179,32.67313],[-80.53317,32.67193],[-80.53503,32.67248],[-80.53641,32.67128],[-80.53828,32.67183],[-80.53965,32.67063],[-80.53917,32.66889],[-80.54055,32.66769],[-80.54007,32.66594],[-80.54145,32.66474],[-80.54331,32.66529],[-80.54469,32.66409],[-80.54421,32.66234],[-80.54559,32.66114],[-80.54745,32.66169],[-80.54883,32.66049],[-80.54835,32.65875],[-80.54973,32.65755],[-80.55159,32.6581],[-80.55297,32.6569],[-80.55249,32.65515],[-80.55387,32.65395],[-80.55339,32.6522],[-80.55477,32.651],[-80.55663,32.65155],[-80.55801,32.65035],[-80.55753,32.6486],[-80.55891,32.64741],[-80.56401,32.6473],[-80.56539,32.6461],[-80.56959,32.64895],[-80.57097,32.64775],[-80.57283,32.6483],[-80.57421,32.6471],[-80.57607,32.64765],[-80.57745,32.64645],[-80.57697,32.6447],[-80.57835,32.6435],[-80.58021,32.64405],[-80.58069,32.6458],[-80.57931,32.647],[-80.5798,32.64875],[-80.57842,32.64995],[-80.5789,32.65169],[-80.57752,32.65289],[-80.578,32.65464],[-80.57986,32.65519],[-80.58034,32.65694],[-80.58545,32.65684],[-80.58593,32.65858],[-80.58779,32.65913],[-80.58917,32.65793],[-80.59103,32.65848],[-80.59241,32.65728],[-80.59427,32.65783],[-80.59476,32.65958],[-80.59338,32.66078],[-80.58827,32.66088],[-80.58689,32.66208],[-80.58737,32.66383],[-80.58599,32.66503],[-80.58413,32.66448],[-80.58275,32.66568],[-80.58323,32.66743],[-80.5851,32.66798],[-80.58648,32.66678],[-80.58834,32.66733],[-80.58882,32.66907],[-80.58744,32.67027],[-80.58558,32.66973],[-80.5842,32.67092],[-80.57999,32.66808],[-80.57861,32.66928],[-80.57909,32.67103],[-80.58096,32.67158],[-80.58144,32.67332],[-80.58006,32.67452],[-80.5782,32.67397],[-80.57682,32.67517],[-80.57261,32.67233],[-80.57123,32.67353],[-80.57171,32.67527],[-80.57033,32.67647],[-80.56847,32.67592],[-80.56709,32.67712],[-80.56757,32.67887],[-80.56619,32.68007],[-80.56667,32.68182],[-80.56529,32.68302],[-80.56343,32.68247],[-80.56295,32.68072],[-80.56109,32.68017],[-80.56061,32.67842],[-80.5564,32.67558],[-80.55502,32.67678],[-80.55551,32.67852],[-80.55413,32.67972],[-80.55461,32.68147],[-80.55323,32.68267],[-80.55137,32.68212],[-80.54999,32.68332],[-80.54812,32.68277],[-80.54674,32.68397],[-80.54488,32.68342],[-80.5435,32.68462],[-80.54164,32.68407],[-80.54116,32.68232],[-80.54254,32.68112],[-80.54206,32.67937],[-80.5402,32.67882],[-80.53882,32.68002],[-80.5393,32.68177],[-80.53792,32.68297],[-80.53606,32.68242],[-80.53558,32.68067],[-80.53696,32.67947],[-80.53648,32.67773],[-80.53786,32.67653],[-80.53738,32.67478],[-80.53552,32.67423],[-80.53414,32.67543],[-80.53462,32.67718],[-80.53324,32.67837],[-80.53138,32.67783],[-80.53,32.67902],[-80.53048,32.68077],[-80.5291,32.68197],[-80.52958,32.68372],[-80.5282,32.68492],[-80.52868,32.68666],[-80.5273,32.68786],[-80.52778,32.68961],[-80.5264,32.69081],[-80.52454,32.69026],[-80.52406,32.68851],[-80.52544,32.68731],[-80.52496,32.68556],[-80.52634,32.68437],[-80.52586,32.68262]],[[-80.5453,32.67872],[-80.54578,32.68047],[-80.55088,32.68037],[-80.55226,32.67917],[-80.55178,32.67743],[-80.54668,32.67753],[-80.5453,32.67872]],[[-80.56869,32.6519],[-80.56917,32.65365],[-80.57104,32.65419],[-80.57242,32.653],[-80.57193,32.65125],[-80.57007,32.6507],[-80.56869,32.6519]],[[-80.57117,32.66708],[-80.56979,32.66828],[-80.57027,32.67003],[-80.57213,32.67058],[-80.57351,32.66938],[-80.57303,32.66763],[-80.57441,32.66643],[-80.57393,32.66468],[-80.57206,32.66414],[-80.57068,32.66533],[-80.57117,32.66708]],[[-80.58455,32.65978],[-80.58269,32.65924],[-80.58131,32.66043],[-80.58179,32.66218],[-80.58365,32.66273],[-80.58503,32.66153],[-80.58455,32.65978]]]}},{"type":"Feature","properties":{"sqmi":4.42},"geometry":{"type":"Polygon","coordinates":[[[-79.42676,33.29939],[-79.42722,33.30113],[-79.42584,33.3023],[-79.4263,33.30403],[-79.43135,33.304],[-79.43273,33.30283],[-79.43457,33.3034],[-79.43502,33.30514],[-79.43043,33.30691],[-79.43089,33.30864],[-79.42951,33.30981],[-79.42997,33.31155],[-79.42859,33.31272],[-79.42904,33.31445],[-79.42766,33.31562],[-79.42812,33.31736],[-79.42674,33.31853],[-79.4272,33.32026],[-79.42582,33.32143],[-79.42169,33.31856],[-79.41709,33.32033],[-79.41755,33.32206],[-79.41617,33.32323],[-79.41663,33.32497],[-79.41847,33.32554],[-79.41985,33.32437],[-79.41939,33.32263],[-79.42077,33.32146],[-79.4249,33.32434],[-79.42536,33.32607],[-79.42398,33.32724],[-79.42444,33.32898],[-79.42306,33.33015],[-79.42122,33.32958],[-79.41984,33.33075],[-79.4203,33.33248],[-79.41892,33.33365],[-79.41386,33.33368],[-79.41341,33.33194],[-79.41479,33.33078],[-79.41433,33.32904],[-79.41571,33.32787],[-79.41525,33.32613],[-79.41341,33.32557],[-79.41203,33.32673],[-79.41249,33.32847],[-79.41111,33.32964],[-79.41157,33.33137],[-79.41019,33.33254],[-79.41065,33.33428],[-79.40927,33.33545],[-79.40421,33.33548],[-79.40376,33.33374],[-79.40192,33.33317],[-79.40146,33.33143],[-79.40284,33.33027],[-79.40239,33.32853],[-79.40055,33.32796],[-79.3978,33.32392],[-79.39596,33.32335],[-79.39458,33.32452],[-79.39275,33.32395],[-79.38815,33.32572],[-79.38631,33.32515],[-79.38586,33.32341],[-79.38724,33.32224],[-79.38678,33.32051],[-79.38816,33.31934],[-79.3877,33.3176],[-79.38587,33.31703],[-79.38449,33.3182],[-79.38265,33.31763],[-79.38219,33.3159],[-79.37714,33.31593],[-79.37669,33.31419],[-79.37807,33.31302],[-79.37761,33.31129],[-79.3822,33.30952],[-79.38175,33.30778],[-79.38312,33.30662],[-79.38267,33.30488],[-79.38726,33.30311],[-79.3868,33.30138],[-79.38268,33.2985],[-79.38222,33.29677],[-79.3836,33.2956],[-79.38773,33.29847],[-79.3891,33.2973],[-79.39094,33.29787],[-79.3914,33.29961],[-79.39002,33.30078],[-79.39048,33.30251],[-79.3891,33.30368],[-79.39185,33.30772],[-79.38725,33.30949],[-79.38771,33.31123],[-79.39184,33.3141],[-79.39322,33.31293],[-79.39505,33.3135],[-79.3978,33.31754],[-79.39964,33.31811],[-79.40102,33.31694],[-79.40056,33.31521],[-79.39873,33.31464],[-79.39827,33.3129],[-79.39965,33.31173],[-79.40378,33.31461],[-79.40516,33.31344],[-79.40241,33.3094],[-79.407,33.30763],[-79.40654,33.3059],[-79.40471,33.30533],[-79.40425,33.30359],[-79.40563,33.30242],[-79.40517,33.30069],[-79.40977,33.29892],[-79.4116,33.29949],[-79.41298,33.29832],[-79.41252,33.29658],[-79.40747,33.29661],[-79.40702,33.29488],[-79.41161,33.29311],[-79.41345,33.29368],[-79.41482,33.29251],[-79.41437,33.29077],[-79.41253,33.2902],[-79.41207,33.28847],[-79.41345,33.2873],[-79.41758,33.29017],[-79.41804,33.29191],[-79.41666,33.29308],[-79.41712,33.29481],[-79.41574,33.29598],[-79.4162,33.29772],[-79.42125,33.29769],[-79.42171,33.29942],[-79.42354,33.29999],[-79.42492,33.29882],[-79.42676,33.29939]],[[-79.4217,33.3058],[-79.42216,33.30754],[-79.424,33.30811],[-79.42538,33.30694],[-79.42492,33.3052],[-79.42308,33.30463],[-79.42262,33.3029],[-79.41849,33.30002],[-79.41711,33.30119],[-79.41757,33.30293],[-79.41619,33.3041],[-79.41665,33.30583],[-79.4217,33.3058]]]}},{"type":"Feature","properties":{"sqmi":4.07},"geometry":{"type":"Polygon","coordinates":[[[-80.40402,32.68668],[-80.40588,32.68723],[-80.40725,32.68604],[-80.40678,32.68429],[-80.40168,32.68438],[-80.40121,32.68264],[-80.39702,32.67979],[-80.39564,32.68098],[-80.39611,32.68273],[-80.39474,32.68393],[-80.39521,32.68567],[-80.39383,32.68687],[-80.39431,32.68862],[-80.39293,32.68981],[-80.39108,32.68926],[-80.3906,32.68751],[-80.38641,32.68466],[-80.38593,32.68292],[-80.38731,32.68172],[-80.38683,32.67998],[-80.38498,32.67942],[-80.3845,32.67768],[-80.37941,32.67777],[-80.37893,32.67602],[-80.38031,32.67483],[-80.3854,32.67474],[-80.38678,32.67354],[-80.3863,32.67179],[-80.38445,32.67124],[-80.38307,32.67244],[-80.38121,32.67189],[-80.37983,32.67308],[-80.37798,32.67253],[-80.37337,32.67437],[-80.37151,32.67382],[-80.37103,32.67207],[-80.37565,32.67023],[-80.37517,32.66849],[-80.37655,32.66729],[-80.38164,32.6672],[-80.38301,32.666],[-80.38254,32.66426],[-80.38392,32.66306],[-80.38901,32.66297],[-80.38948,32.66471],[-80.39134,32.66526],[-80.39385,32.66317],[-80.39224,32.66232],[-80.39362,32.66112],[-80.39548,32.66168],[-80.39685,32.66048],[-80.39638,32.65873],[-80.39452,32.65818],[-80.39409,32.6566],[-80.39694,32.65569],[-80.39775,32.65754],[-80.39961,32.65809],[-80.40009,32.65983],[-80.39871,32.66103],[-80.39919,32.66278],[-80.40104,32.66333],[-80.40152,32.66507],[-80.40661,32.66498],[-80.40709,32.66673],[-80.40571,32.66792],[-80.40619,32.66967],[-80.40805,32.67022],[-80.40852,32.67197],[-80.41362,32.67187],[-80.41409,32.67362],[-80.41595,32.67417],[-80.41643,32.67592],[-80.41505,32.67711],[-80.41637,32.67911],[-80.41696,32.6841],[-80.41235,32.68594],[-80.41283,32.68769],[-80.41468,32.68824],[-80.41516,32.68999],[-80.41378,32.69118],[-80.41426,32.69293],[-80.41288,32.69413],[-80.41336,32.69587],[-80.41486,32.69632],[-80.41569,32.69817],[-80.41432,32.69937],[-80.41479,32.70111],[-80.41341,32.70231],[-80.41156,32.70176],[-80.41018,32.70295],[-80.41066,32.7047],[-80.40928,32.7059],[-80.40975,32.70764],[-80.41161,32.70819],[-80.41299,32.707],[-80.41251,32.70525],[-80.41389,32.70406],[-80.41575,32.70461],[-80.41623,32.70635],[-80.41809,32.7069],[-80.41946,32.70571],[-80.42153,32.70703],[-80.4218,32.70801],[-80.42042,32.7092],[-80.41533,32.7093],[-80.41395,32.71049],[-80.41443,32.71224],[-80.41305,32.71343],[-80.41352,32.71518],[-80.41538,32.71573],[-80.41586,32.71748],[-80.42005,32.72033],[-80.42053,32.72207],[-80.41915,32.72327],[-80.41496,32.72042],[-80.41448,32.71867],[-80.41262,32.71812],[-80.41215,32.71638],[-80.40705,32.71647],[-80.40657,32.71472],[-80.40472,32.71417],[-80.40424,32.71242],[-80.40005,32.70958],[-80.39957,32.70783],[-80.40095,32.70663],[-80.40047,32.70489],[-80.39861,32.70434],[-80.39813,32.70259],[-80.40275,32.70075],[-80.40461,32.7013],[-80.40599,32.7001],[-80.40551,32.69836],[-80.40689,32.69716],[-80.40641,32.69541],[-80.40132,32.69551],[-80.40084,32.69376],[-80.40222,32.69257],[-80.40174,32.69082],[-80.40312,32.68962],[-80.40264,32.68788],[-80.40402,32.68668]],[[-80.39691,32.66692],[-80.39829,32.66572],[-80.39781,32.66397],[-80.39595,32.66342],[-80.39457,32.66462],[-80.39505,32.66636],[-80.39691,32.66692]],[[-80.40444,32.68199],[-80.40582,32.6808],[-80.40534,32.67905],[-80.40349,32.6785],[-80.40211,32.67969],[-80.40259,32.68144],[-80.40444,32.68199]],[[-80.41119,32.71288],[-80.41071,32.71114],[-80.40885,32.71058],[-80.40747,32.71178],[-80.40795,32.71353],[-80.40981,32.71408],[-80.41119,32.71288]],[[-80.40816,32.68309],[-80.41001,32.68364],[-80.41139,32.68245],[-80.41091,32.6807],[-80.40906,32.68015],[-80.40768,32.68135],[-80.40816,32.68309]],[[-80.41055,32.69183],[-80.41192,32.69063],[-80.41145,32.68888],[-80.40959,32.68833],[-80.40821,32.68953],[-80.40869,32.69128],[-80.41055,32.69183]]]}},{"type":"Feature","properties":{"sqmi":4.01},"geometry":{"type":"Polygon","coordinates":[[[-77.15137,34.96767],[-77.15121,34.96606],[-77.15301,34.96514],[-77.15285,34.96352],[-77.15087,34.96282],[-77.15071,34.96121],[-77.15252,34.96029],[-77.15235,34.95867],[-77.15037,34.95797],[-77.15021,34.95636],[-77.15202,34.95544],[-77.15185,34.95383],[-77.14987,34.95312],[-77.14971,34.95151],[-77.15152,34.95059],[-77.15135,34.94898],[-77.14938,34.94828],[-77.14921,34.94666],[-77.15102,34.94574],[-77.15085,34.94413],[-77.14888,34.94343],[-77.14871,34.94181],[-77.15052,34.9409],[-77.15035,34.93928],[-77.15216,34.93837],[-77.15792,34.93885],[-77.15808,34.94047],[-77.16006,34.94117],[-77.16187,34.94025],[-77.1617,34.93864],[-77.15973,34.93794],[-77.15956,34.93632],[-77.16137,34.93541],[-77.16712,34.93589],[-77.16729,34.93751],[-77.16926,34.93821],[-77.16943,34.93983],[-77.16762,34.94074],[-77.16779,34.94236],[-77.16977,34.94306],[-77.16993,34.94467],[-77.16812,34.94559],[-77.16829,34.94721],[-77.16648,34.94812],[-77.16665,34.94974],[-77.16484,34.95065],[-77.16501,34.95227],[-77.16698,34.95297],[-77.16879,34.95205],[-77.16863,34.95044],[-77.17043,34.94952],[-77.17027,34.94791],[-77.17207,34.94699],[-77.17405,34.94769],[-77.17422,34.94931],[-77.17241,34.95022],[-77.17258,34.95184],[-77.17455,34.95254],[-77.17472,34.95416],[-77.17669,34.95486],[-77.1785,34.95394],[-77.18048,34.95464],[-77.18064,34.95626],[-77.17884,34.95717],[-77.179,34.95879],[-77.18476,34.95928],[-77.18493,34.96089],[-77.18312,34.96181],[-77.17736,34.96132],[-77.17555,34.96224],[-77.17358,34.96154],[-77.17177,34.96245],[-77.16979,34.96175],[-77.16799,34.96267],[-77.16815,34.96428],[-77.17391,34.96477],[-77.17408,34.96639],[-77.16849,34.96752],[-77.16865,34.96913],[-77.17441,34.96962],[-77.17458,34.97124],[-77.16899,34.97237],[-77.16701,34.97167],[-77.1652,34.97258],[-77.16537,34.9742],[-77.16356,34.97511],[-77.16373,34.97673],[-77.1657,34.97743],[-77.16751,34.97652],[-77.16735,34.9749],[-77.16915,34.97398],[-77.17113,34.97468],[-77.1713,34.9763],[-77.17327,34.977],[-77.17344,34.97862],[-77.16785,34.97975],[-77.16801,34.98137],[-77.1662,34.98228],[-77.16637,34.9839],[-77.16835,34.9846],[-77.16851,34.98622],[-77.1667,34.98713],[-77.16687,34.98875],[-77.16506,34.98967],[-77.16309,34.98896],[-77.16292,34.98735],[-77.16094,34.98665],[-77.15913,34.98756],[-77.15716,34.98686],[-77.15699,34.98524],[-77.15501,34.98454],[-77.1532,34.98546],[-77.15123,34.98476],[-77.15106,34.98314],[-77.1453,34.98265],[-77.14513,34.98103],[-77.14694,34.98012],[-77.14678,34.9785],[-77.14859,34.97759],[-77.14842,34.97597],[-77.15023,34.97505],[-77.15006,34.97344],[-77.14809,34.97274],[-77.14792,34.97112],[-77.14973,34.9702],[-77.14956,34.96859],[-77.15137,34.96767]],[[-77.16748,34.95782],[-77.16929,34.9569],[-77.16913,34.95529],[-77.16715,34.95458],[-77.16534,34.9555],[-77.16551,34.95712],[-77.16748,34.95782]],[[-77.17505,34.95739],[-77.17308,34.95669],[-77.17127,34.9576],[-77.17144,34.95922],[-77.17341,34.95992],[-77.17522,34.959],[-77.17505,34.95739]]]}},{"type":"Feature","properties":{"sqmi":3.35},"geometry":{"type":"Polygon","coordinates":[[[-81.60522,30.94247],[-81.60403,30.94592],[-81.60207,30.947],[-81.60021,30.94648],[-81.59885,30.94773],[-81.59934,30.94948],[-81.59798,30.95073],[-81.59848,30.95248],[-81.59711,30.95373],[-81.59761,30.95548],[-81.59624,30.95673],[-81.59202,30.95393],[-81.59152,30.95217],[-81.59289,30.95093],[-81.59475,30.95145],[-81.59612,30.95021],[-81.59562,30.94845],[-81.59698,30.94721],[-81.59649,30.94545],[-81.59785,30.94421],[-81.59735,30.94245],[-81.59872,30.94121],[-81.59822,30.93945],[-81.59959,30.93821],[-81.59909,30.93645],[-81.60045,30.9352],[-81.59996,30.93345],[-81.60132,30.9322],[-81.60082,30.93044],[-81.60219,30.9292],[-81.60169,30.92744],[-81.60306,30.9262],[-81.60256,30.92444],[-81.6007,30.92393],[-81.6002,30.92217],[-81.60156,30.92092],[-81.60107,30.91916],[-81.60243,30.91792],[-81.60193,30.91616],[-81.6033,30.91492],[-81.60516,30.91544],[-81.60653,30.9142],[-81.60839,30.91472],[-81.60975,30.91348],[-81.61162,30.91399],[-81.61298,30.91275],[-81.6172,30.91555],[-81.6177,30.91731],[-81.61956,30.91783],[-81.62093,30.91658],[-81.62279,30.9171],[-81.62416,30.91586],[-81.62602,30.91638],[-81.62738,30.91514],[-81.62925,30.91565],[-81.62975,30.91741],[-81.63161,30.91793],[-81.63211,30.91969],[-81.63074,30.92093],[-81.63124,30.92269],[-81.6331,30.92321],[-81.6336,30.92497],[-81.63224,30.92621],[-81.62714,30.92642],[-81.62665,30.92466],[-81.62801,30.92342],[-81.62751,30.92166],[-81.62565,30.92114],[-81.62515,30.91938],[-81.62006,30.91959],[-81.6187,30.92083],[-81.61919,30.92259],[-81.62429,30.92238],[-81.62478,30.92414],[-81.62342,30.92538],[-81.62392,30.92714],[-81.62578,30.92766],[-81.62628,30.92942],[-81.62491,30.93066],[-81.62069,30.92787],[-81.61932,30.92911],[-81.61746,30.92859],[-81.6161,30.92983],[-81.61659,30.93159],[-81.62082,30.93439],[-81.62131,30.93615],[-81.62318,30.93666],[-81.62368,30.93842],[-81.62231,30.93967],[-81.61809,30.93687],[-81.61672,30.93811],[-81.61722,30.93987],[-81.62144,30.94267],[-81.62281,30.94142],[-81.62467,30.94194],[-81.62517,30.9437],[-81.6238,30.94494],[-81.62194,30.94443],[-81.62058,30.94567],[-81.61635,30.94287],[-81.61499,30.94411],[-81.61548,30.94587],[-81.61735,30.94639],[-81.61785,30.94815],[-81.62294,30.94795],[-81.62344,30.9497],[-81.6253,30.95022],[-81.6258,30.95198],[-81.62443,30.95322],[-81.62493,30.95498],[-81.62356,30.95622],[-81.6217,30.95571],[-81.6212,30.95395],[-81.62257,30.95271],[-81.62207,30.95095],[-81.62021,30.95043],[-81.61884,30.95167],[-81.61934,30.95343],[-81.61797,30.95467],[-81.61847,30.95643],[-81.61711,30.95767],[-81.61524,30.95715],[-81.61475,30.95539],[-81.61611,30.95415],[-81.61561,30.95239],[-81.61698,30.95115],[-81.61648,30.94939],[-81.61462,30.94887],[-81.61325,30.95011],[-81.61375,30.95187],[-81.61238,30.95311],[-81.61052,30.9526],[-81.61002,30.95084],[-81.60816,30.95032],[-81.60766,30.94856],[-81.60903,30.94732],[-81.60853,30.94556],[-81.6099,30.94432],[-81.6094,30.94256],[-81.60753,30.94204],[-81.60682,30.94269],[-81.60679,30.94205],[-81.60522,30.94247]],[[-81.60145,30.93872],[-81.60195,30.94048],[-81.60381,30.941],[-81.60517,30.93976],[-81.60468,30.938],[-81.60281,30.93748],[-81.60145,30.93872]]]}},{"type":"Feature","properties":{"sqmi":3.31},"geometry":{"type":"Polygon","coordinates":[[[-79.59126,33.08509],[-79.59172,33.08683],[-79.59356,33.08739],[-79.59494,33.08622],[-79.59677,33.08678],[-79.59724,33.08852],[-79.59907,33.08909],[-79.59954,33.09082],[-79.59816,33.092],[-79.59862,33.09374],[-79.59402,33.09552],[-79.59448,33.09726],[-79.59632,33.09783],[-79.60092,33.09604],[-79.60276,33.09661],[-79.60413,33.09543],[-79.60367,33.09369],[-79.60184,33.09313],[-79.60137,33.09139],[-79.60275,33.09021],[-79.60689,33.09308],[-79.60735,33.09482],[-79.61241,33.09477],[-79.61287,33.09651],[-79.61471,33.09708],[-79.6193,33.09529],[-79.62344,33.09816],[-79.62482,33.09698],[-79.62436,33.09524],[-79.62574,33.09407],[-79.62758,33.09463],[-79.62804,33.09637],[-79.62988,33.09693],[-79.63034,33.09867],[-79.62896,33.09985],[-79.62943,33.10159],[-79.63127,33.10215],[-79.63264,33.10098],[-79.63218,33.09924],[-79.63356,33.09806],[-79.6354,33.09863],[-79.63678,33.09745],[-79.63632,33.09571],[-79.63769,33.09454],[-79.63723,33.0928],[-79.63861,33.09162],[-79.64045,33.09218],[-79.64091,33.09392],[-79.63953,33.0951],[-79.64,33.09684],[-79.63862,33.09801],[-79.63908,33.09975],[-79.63448,33.10154],[-79.63495,33.10328],[-79.63357,33.10445],[-79.63403,33.10619],[-79.63265,33.10737],[-79.63081,33.10681],[-79.62943,33.10798],[-79.62759,33.10742],[-79.62621,33.10859],[-79.62437,33.10803],[-79.623,33.1092],[-79.62116,33.10864],[-79.61978,33.10981],[-79.61794,33.10925],[-79.61334,33.11103],[-79.6115,33.11047],[-79.61012,33.11164],[-79.61059,33.11338],[-79.60921,33.11456],[-79.60737,33.11399],[-79.60599,33.11517],[-79.60415,33.1146],[-79.59956,33.11639],[-79.59542,33.11352],[-79.59404,33.1147],[-79.5945,33.11643],[-79.5899,33.11822],[-79.58806,33.11765],[-79.5876,33.11592],[-79.58577,33.11535],[-79.5853,33.11361],[-79.5899,33.11183],[-79.59174,33.11239],[-79.59312,33.11122],[-79.59495,33.11178],[-79.59633,33.11061],[-79.59587,33.10887],[-79.59082,33.10891],[-79.59036,33.10718],[-79.59173,33.106],[-79.59679,33.10596],[-79.59725,33.10769],[-79.59909,33.10826],[-79.59955,33.11],[-79.60139,33.11056],[-79.60277,33.10939],[-79.60231,33.10765],[-79.60047,33.10708],[-79.60001,33.10535],[-79.60138,33.10417],[-79.60092,33.10243],[-79.59908,33.10187],[-79.59771,33.10304],[-79.59587,33.10248],[-79.59127,33.10426],[-79.58713,33.1014],[-79.58576,33.10257],[-79.58622,33.10431],[-79.58484,33.10548],[-79.583,33.10492],[-79.58254,33.10318],[-79.58392,33.10201],[-79.58346,33.10027],[-79.58484,33.09909],[-79.58667,33.09966],[-79.58805,33.09848],[-79.58759,33.09674],[-79.58575,33.09618],[-79.58437,33.09735],[-79.58254,33.09679],[-79.58208,33.09505],[-79.57702,33.0951],[-79.57426,33.09105],[-79.57886,33.08927],[-79.5784,33.08753],[-79.57977,33.08636],[-79.57931,33.08462],[-79.58069,33.08344],[-79.58483,33.08631],[-79.58621,33.08514],[-79.59126,33.08509]],[[-79.58529,33.08805],[-79.58391,33.08922],[-79.58437,33.09096],[-79.58943,33.09092],[-79.5908,33.08974],[-79.59034,33.088],[-79.5885,33.08744],[-79.58713,33.08861],[-79.58529,33.08805]],[[-79.61196,33.10582],[-79.61334,33.10464],[-79.61288,33.1029],[-79.61425,33.10173],[-79.61609,33.10229],[-79.61747,33.10112],[-79.62161,33.10399],[-79.62207,33.10572],[-79.62391,33.10629],[-79.62529,33.10511],[-79.62483,33.10337],[-79.62621,33.1022],[-79.62575,33.10046],[-79.62391,33.0999],[-79.62253,33.10107],[-79.61839,33.0982],[-79.61701,33.09938],[-79.61517,33.09882],[-79.61379,33.09999],[-79.61195,33.09943],[-79.61057,33.1006],[-79.60874,33.10004],[-79.60414,33.10182],[-79.6046,33.10356],[-79.60966,33.10351],[-79.61012,33.10525],[-79.61196,33.10582]]]}},{"type":"Feature","properties":{"sqmi":3.12},"geometry":{"type":"Polygon","coordinates":[[[-79.24644,33.30561],[-79.24782,33.30445],[-79.24965,33.30502],[-79.25011,33.30675],[-79.24873,33.30792],[-79.24918,33.30965],[-79.25101,33.31022],[-79.25147,33.31196],[-79.25009,33.31312],[-79.25054,33.31486],[-79.24596,33.31662],[-79.24641,33.31835],[-79.24824,33.31892],[-79.24962,33.31776],[-79.25145,33.31833],[-79.25191,33.32006],[-79.25053,33.32123],[-79.25098,33.32296],[-79.25281,33.32354],[-79.25327,33.32527],[-79.25189,33.32644],[-79.25006,33.32586],[-79.2496,33.32413],[-79.24456,33.32415],[-79.24411,33.32242],[-79.24549,33.32125],[-79.24503,33.31952],[-79.2432,33.31895],[-79.24182,33.32011],[-79.24228,33.32185],[-79.23769,33.32361],[-79.24043,33.32765],[-79.23905,33.32881],[-79.23722,33.32824],[-79.23677,33.32651],[-79.23265,33.32363],[-79.23127,33.32479],[-79.22623,33.32482],[-79.22485,33.32598],[-79.22531,33.32772],[-79.22393,33.32888],[-79.2221,33.32831],[-79.22072,33.32947],[-79.21661,33.3266],[-79.21523,33.32776],[-79.21568,33.3295],[-79.2143,33.33066],[-79.20926,33.33068],[-79.20881,33.32895],[-79.21019,33.32778],[-79.20974,33.32605],[-79.21111,33.32488],[-79.21066,33.32315],[-79.21204,33.32199],[-79.21159,33.32025],[-79.21296,33.31909],[-79.21251,33.31735],[-79.21389,33.31619],[-79.21115,33.31215],[-79.21253,33.31098],[-79.21208,33.30925],[-79.21345,33.30808],[-79.213,33.30635],[-79.21117,33.30578],[-79.21085,33.30393],[-79.21725,33.3033],[-79.21759,33.30459],[-79.21621,33.30576],[-79.21666,33.30749],[-79.21849,33.30806],[-79.21987,33.3069],[-79.21942,33.30516],[-79.22079,33.304],[-79.22262,33.30457],[-79.22386,33.30286],[-79.23345,33.30221],[-79.23902,33.30296],[-79.23774,33.3045],[-79.2382,33.30623],[-79.24003,33.3068],[-79.2414,33.30564],[-79.24095,33.3039],[-79.24233,33.30274],[-79.24644,33.30561]],[[-79.21479,33.31966],[-79.21525,33.32139],[-79.21708,33.32196],[-79.21846,33.3208],[-79.218,33.31906],[-79.21617,33.31849],[-79.21479,33.31966]],[[-79.22029,33.32137],[-79.22074,33.3231],[-79.21936,33.32427],[-79.21981,33.326],[-79.22165,33.32657],[-79.22302,33.32541],[-79.22257,33.32368],[-79.22395,33.32251],[-79.22899,33.32249],[-79.23037,33.32132],[-79.22991,33.31959],[-79.22808,33.31902],[-79.2267,33.32018],[-79.22166,33.32021],[-79.22029,33.32137]],[[-79.22993,33.31322],[-79.22855,33.31438],[-79.22901,33.31612],[-79.23084,33.31669],[-79.23221,33.31553],[-79.23176,33.31379],[-79.22993,33.31322]],[[-79.2446,33.31141],[-79.24505,33.31315],[-79.24688,33.31372],[-79.24826,33.31255],[-79.24781,33.31082],[-79.24597,33.31025],[-79.2446,33.31141]]]}},{"type":"Feature","properties":{"sqmi":3.1},"geometry":{"type":"Polygon","coordinates":[[[-76.25585,35.88186],[-76.26171,35.8824],[-76.26357,35.88149],[-76.26343,35.87985],[-76.26529,35.87893],[-76.26515,35.87729],[-76.26701,35.87637],[-76.26687,35.87473],[-76.26487,35.87401],[-76.26473,35.87236],[-76.26273,35.87164],[-76.26259,35.87],[-76.26445,35.86908],[-76.26645,35.86981],[-76.26659,35.87145],[-76.26859,35.87217],[-76.27045,35.87126],[-76.27031,35.86962],[-76.26831,35.86889],[-76.26817,35.86725],[-76.26231,35.86671],[-76.26045,35.86763],[-76.25846,35.8669],[-76.2566,35.86782],[-76.2546,35.86709],[-76.25446,35.86545],[-76.25632,35.86453],[-76.25832,35.86526],[-76.26018,35.86434],[-76.26603,35.86488],[-76.26789,35.86397],[-76.26775,35.86233],[-76.26961,35.86141],[-76.27161,35.86214],[-76.27175,35.86378],[-76.26989,35.86469],[-76.27003,35.86633],[-76.27203,35.86706],[-76.27389,35.86615],[-76.27975,35.86668],[-76.27989,35.86832],[-76.27803,35.86924],[-76.27817,35.87088],[-76.28403,35.87142],[-76.28417,35.87306],[-76.28617,35.87379],[-76.28802,35.87287],[-76.28788,35.87123],[-76.28589,35.8705],[-76.28574,35.86886],[-76.28375,35.86814],[-76.28361,35.86649],[-76.28932,35.86539],[-76.28918,35.86375],[-76.29104,35.86283],[-76.2909,35.86119],[-76.29276,35.86028],[-76.29862,35.86081],[-76.29876,35.86245],[-76.30076,35.86318],[-76.30262,35.86226],[-76.30461,35.86299],[-76.30476,35.86463],[-76.3029,35.86555],[-76.30304,35.86719],[-76.30504,35.86791],[-76.3069,35.867],[-76.31275,35.86753],[-76.31461,35.86662],[-76.31661,35.86734],[-76.31675,35.86898],[-76.31875,35.86971],[-76.3189,35.87135],[-76.31704,35.87227],[-76.31718,35.87391],[-76.31146,35.87502],[-76.3056,35.87448],[-76.30374,35.8754],[-76.30388,35.87704],[-76.30202,35.87795],[-76.30216,35.87959],[-76.30031,35.88051],[-76.29831,35.87978],[-76.29816,35.87814],[-76.29616,35.87742],[-76.29431,35.87833],[-76.29445,35.87997],[-76.29645,35.8807],[-76.29659,35.88234],[-76.29473,35.88326],[-76.29273,35.88253],[-76.29259,35.88089],[-76.29059,35.88016],[-76.28873,35.88108],[-76.28887,35.88272],[-76.29087,35.88345],[-76.29101,35.88509],[-76.28928,35.88594],[-76.28329,35.88547],[-76.28315,35.88383],[-76.27911,35.8814],[-76.27401,35.88199],[-76.27193,35.88314],[-76.27004,35.88664],[-76.26765,35.88615],[-76.26557,35.88699],[-76.26399,35.88641],[-76.26385,35.88477],[-76.26185,35.88404],[-76.25613,35.88515],[-76.25413,35.88442],[-76.25399,35.88278],[-76.25585,35.88186]],[[-76.26943,35.88203],[-76.26743,35.8813],[-76.26557,35.88221],[-76.26571,35.88386],[-76.26771,35.88458],[-76.26957,35.88367],[-76.26943,35.88203]],[[-76.2936,35.87012],[-76.29174,35.87104],[-76.29188,35.87268],[-76.29388,35.87341],[-76.29574,35.87249],[-76.2956,35.87085],[-76.2936,35.87012]],[[-76.31504,35.87154],[-76.3149,35.8699],[-76.3129,35.86917],[-76.31104,35.87009],[-76.31118,35.87173],[-76.31318,35.87246],[-76.31504,35.87154]]]}},{"type":"Feature","properties":{"sqmi":1.67},"geometry":{"type":"Polygon","coordinates":[[[-81.0281,32.52723],[-81.02997,32.52777],[-81.03047,32.52952],[-81.02908,32.53073],[-81.02485,32.5279],[-81.02436,32.52615],[-81.02574,32.52494],[-81.02525,32.52318],[-81.02663,32.52197],[-81.02614,32.52022],[-81.02752,32.51901],[-81.02939,32.51955],[-81.03077,32.51834],[-81.03264,32.51889],[-81.03403,32.51768],[-81.03353,32.51592],[-81.03491,32.51471],[-81.04004,32.51459],[-81.04053,32.51634],[-81.03915,32.51755],[-81.03728,32.51701],[-81.0359,32.51822],[-81.03639,32.51997],[-81.03826,32.52051],[-81.03876,32.52226],[-81.03737,32.52347],[-81.03787,32.52523],[-81.0421,32.52806],[-81.04349,32.52685],[-81.04536,32.5274],[-81.04585,32.52915],[-81.05009,32.53198],[-81.05058,32.53374],[-81.0492,32.53495],[-81.04969,32.5367],[-81.04831,32.53791],[-81.04644,32.53737],[-81.04506,32.53858],[-81.04555,32.54033],[-81.04417,32.54154],[-81.04229,32.541],[-81.04091,32.54221],[-81.0414,32.54396],[-81.04002,32.54517],[-81.04051,32.54692],[-81.04239,32.54746],[-81.04288,32.54922],[-81.0415,32.55043],[-81.03962,32.54988],[-81.03913,32.54813],[-81.03726,32.54759],[-81.03677,32.54584],[-81.03489,32.54529],[-81.03351,32.5465],[-81.02927,32.54367],[-81.02878,32.54192],[-81.03016,32.54071],[-81.02967,32.53895],[-81.0278,32.53841],[-81.0273,32.53666],[-81.02543,32.53612],[-81.02494,32.53436],[-81.02632,32.53315],[-81.02819,32.5337],[-81.02869,32.53545],[-81.03056,32.53599],[-81.03194,32.53478],[-81.03145,32.53303],[-81.03283,32.53182],[-81.0347,32.53236],[-81.03609,32.53115],[-81.03559,32.5294],[-81.03136,32.52656],[-81.03086,32.52481],[-81.02899,32.52427],[-81.02761,32.52548],[-81.0281,32.52723]],[[-81.03501,32.52118],[-81.03314,32.52064],[-81.03175,32.52185],[-81.03225,32.5236],[-81.03412,32.52414],[-81.0355,32.52293],[-81.03501,32.52118]]]}},{"type":"Feature","properties":{"sqmi":1.66},"geometry":{"type":"Polygon","coordinates":[[[-76.4906,35.84133],[-76.4886,35.8406],[-76.48845,35.83896],[-76.4903,35.83805],[-76.49016,35.8364],[-76.49201,35.83549],[-76.49186,35.83385],[-76.49372,35.83293],[-76.49357,35.83129],[-76.48771,35.83076],[-76.48586,35.83168],[-76.48601,35.83332],[-76.4803,35.83443],[-76.48044,35.83607],[-76.47859,35.83699],[-76.47659,35.83627],[-76.47644,35.83463],[-76.47444,35.83391],[-76.47429,35.83227],[-76.47615,35.83135],[-76.482,35.83187],[-76.48386,35.83096],[-76.48371,35.82932],[-76.48557,35.8284],[-76.48542,35.82676],[-76.48727,35.82584],[-76.49313,35.82637],[-76.49328,35.82801],[-76.49528,35.82873],[-76.49713,35.82781],[-76.49913,35.82853],[-76.49928,35.83017],[-76.50128,35.8309],[-76.50313,35.82998],[-76.50513,35.8307],[-76.50699,35.82978],[-76.50684,35.82814],[-76.50484,35.82742],[-76.50299,35.82834],[-76.50099,35.82761],[-76.50084,35.82597],[-76.50655,35.82486],[-76.50855,35.82558],[-76.50869,35.82722],[-76.51455,35.82775],[-76.5147,35.82939],[-76.5167,35.83011],[-76.51855,35.82919],[-76.52055,35.82991],[-76.5207,35.83155],[-76.5227,35.83228],[-76.52285,35.83392],[-76.521,35.83483],[-76.52115,35.83647],[-76.51929,35.83739],[-76.51344,35.83687],[-76.51158,35.83779],[-76.50958,35.83706],[-76.50943,35.83542],[-76.51514,35.83431],[-76.51499,35.83267],[-76.51299,35.83195],[-76.50728,35.83306],[-76.50143,35.83254],[-76.49957,35.83345],[-76.49972,35.83509],[-76.49787,35.83601],[-76.49801,35.83765],[-76.50002,35.83838],[-76.50187,35.83746],[-76.50172,35.83582],[-76.50358,35.8349],[-76.50558,35.83562],[-76.50573,35.83726],[-76.50387,35.83818],[-76.50402,35.83982],[-76.50602,35.84054],[-76.50787,35.83962],[-76.51373,35.84015],[-76.51388,35.84179],[-76.51588,35.84251],[-76.51603,35.84415],[-76.51418,35.84507],[-76.50832,35.84455],[-76.50646,35.84546],[-76.50446,35.84474],[-76.50261,35.84566],[-76.50061,35.84494],[-76.50046,35.8433],[-76.49846,35.84257],[-76.49275,35.84369],[-76.49074,35.84297],[-76.4906,35.84133]]]}},{"type":"Feature","properties":{"sqmi":1.53},"geometry":{"type":"Polygon","coordinates":[[[-80.96334,32.39416],[-80.96472,32.39295],[-80.96423,32.39119],[-80.9656,32.38998],[-80.96512,32.38823],[-80.96649,32.38702],[-80.97072,32.38986],[-80.9721,32.38865],[-80.97161,32.38689],[-80.97299,32.38568],[-80.97486,32.38622],[-80.97624,32.38501],[-80.97575,32.38326],[-80.97063,32.38339],[-80.97014,32.38164],[-80.97152,32.38043],[-80.97339,32.38097],[-80.97477,32.37976],[-80.97664,32.3803],[-80.97802,32.37909],[-80.97989,32.37963],[-80.98127,32.37842],[-80.98313,32.37896],[-80.98362,32.38071],[-80.98549,32.38125],[-80.98598,32.383],[-80.9846,32.38422],[-80.98509,32.38597],[-80.98372,32.38718],[-80.98421,32.38893],[-80.98283,32.39014],[-80.98332,32.39189],[-80.98194,32.3931],[-80.98243,32.39486],[-80.98105,32.39607],[-80.97918,32.39553],[-80.9778,32.39674],[-80.97829,32.39849],[-80.98016,32.39903],[-80.98154,32.39782],[-80.98341,32.39836],[-80.98479,32.39715],[-80.98902,32.39999],[-80.98951,32.40174],[-80.98813,32.40295],[-80.98862,32.4047],[-80.98724,32.40591],[-80.98773,32.40766],[-80.98635,32.40887],[-80.98684,32.41063],[-80.98546,32.41184],[-80.98359,32.4113],[-80.9831,32.40954],[-80.98123,32.409],[-80.98074,32.40725],[-80.97562,32.40738],[-80.97513,32.40563],[-80.97651,32.40441],[-80.97602,32.40266],[-80.97415,32.40212],[-80.97366,32.40037],[-80.97504,32.39916],[-80.97455,32.39741],[-80.97268,32.39686],[-80.9713,32.39808],[-80.97179,32.39983],[-80.97041,32.40104],[-80.96854,32.4005],[-80.96805,32.39874],[-80.96383,32.39591],[-80.96334,32.39416]],[[-80.97219,32.39511],[-80.97357,32.3939],[-80.97308,32.39215],[-80.96796,32.39228],[-80.96658,32.39349],[-80.96707,32.39524],[-80.97219,32.39511]],[[-80.97633,32.39148],[-80.97682,32.39323],[-80.97869,32.39377],[-80.98007,32.39256],[-80.97958,32.39081],[-80.97771,32.39027],[-80.97633,32.39148]],[[-80.97949,32.38434],[-80.98136,32.38489],[-80.98274,32.38367],[-80.98225,32.38192],[-80.98038,32.38138],[-80.979,32.38259],[-80.97949,32.38434]]]}},{"type":"Feature","properties":{"sqmi":1.51},"geometry":{"type":"Polygon","coordinates":[[[-76.90409,35.71256],[-76.90393,35.71093],[-76.90577,35.71],[-76.90777,35.71072],[-76.90794,35.71235],[-76.90994,35.71307],[-76.91178,35.71215],[-76.91162,35.71051],[-76.91346,35.70959],[-76.9133,35.70795],[-76.91514,35.70703],[-76.91498,35.70539],[-76.91298,35.70468],[-76.91114,35.7056],[-76.9113,35.70724],[-76.90946,35.70816],[-76.90745,35.70744],[-76.90729,35.70581],[-76.90529,35.70509],[-76.90513,35.70346],[-76.89928,35.70295],[-76.89912,35.70132],[-76.89712,35.7006],[-76.89696,35.69896],[-76.8988,35.69804],[-76.89864,35.69641],[-76.89664,35.69569],[-76.89648,35.69406],[-76.89832,35.69313],[-76.89816,35.6915],[-76.9,35.69058],[-76.902,35.69129],[-76.90216,35.69293],[-76.90801,35.69343],[-76.90817,35.69507],[-76.91017,35.69578],[-76.91201,35.69486],[-76.91185,35.69322],[-76.91369,35.6923],[-76.91569,35.69301],[-76.91585,35.69465],[-76.91401,35.69557],[-76.91417,35.69721],[-76.91618,35.69792],[-76.91634,35.69956],[-76.91834,35.70027],[-76.9185,35.70191],[-76.9205,35.70262],[-76.92234,35.7017],[-76.92218,35.70006],[-76.92018,35.69935],[-76.92002,35.69771],[-76.92186,35.69679],[-76.92771,35.69729],[-76.92787,35.69893],[-76.92603,35.69985],[-76.92619,35.70149],[-76.92819,35.7022],[-76.92835,35.70384],[-76.92651,35.70476],[-76.92667,35.7064],[-76.92483,35.70732],[-76.92283,35.70661],[-76.92099,35.70753],[-76.92115,35.70917],[-76.92315,35.70988],[-76.92331,35.71152],[-76.92147,35.71244],[-76.92163,35.71408],[-76.91979,35.715],[-76.91779,35.71429],[-76.91763,35.71265],[-76.91562,35.71194],[-76.91378,35.71286],[-76.91394,35.7145],[-76.9121,35.71542],[-76.9101,35.71471],[-76.90826,35.71563],[-76.90625,35.71491],[-76.90609,35.71328],[-76.90409,35.71256]]]}},{"type":"Feature","properties":{"sqmi":1.47},"geometry":{"type":"Polygon","coordinates":[[[-75.81158,35.84835],[-75.80971,35.84926],[-75.80772,35.84853],[-75.80759,35.84689],[-75.80946,35.84598],[-75.80934,35.84434],[-75.80735,35.8436],[-75.80722,35.84196],[-75.80137,35.8414],[-75.80125,35.83976],[-75.80312,35.83886],[-75.80299,35.83721],[-75.801,35.83648],[-75.80088,35.83484],[-75.79889,35.83411],[-75.79876,35.83246],[-75.80063,35.83156],[-75.80051,35.82992],[-75.80237,35.82901],[-75.80225,35.82737],[-75.80026,35.82663],[-75.80014,35.82499],[-75.79815,35.82426],[-75.79802,35.82262],[-75.79603,35.82189],[-75.79417,35.82279],[-75.79218,35.82206],[-75.79205,35.82042],[-75.79006,35.81968],[-75.78994,35.81804],[-75.79181,35.81714],[-75.79168,35.8155],[-75.79355,35.81459],[-75.79343,35.81295],[-75.79529,35.81204],[-75.79517,35.8104],[-75.79318,35.80967],[-75.79306,35.80803],[-75.78721,35.80747],[-75.78709,35.80583],[-75.78895,35.80492],[-75.7948,35.80548],[-75.79492,35.80712],[-75.79691,35.80785],[-75.79703,35.80949],[-75.80288,35.81005],[-75.803,35.81169],[-75.80114,35.8126],[-75.80126,35.81424],[-75.80711,35.8148],[-75.80723,35.81644],[-75.80922,35.81718],[-75.80934,35.81882],[-75.81133,35.81955],[-75.81146,35.82119],[-75.80573,35.82227],[-75.80586,35.82391],[-75.80399,35.82482],[-75.80412,35.82646],[-75.80611,35.82719],[-75.80623,35.82884],[-75.80436,35.82974],[-75.80449,35.83138],[-75.81033,35.83194],[-75.81046,35.83358],[-75.81245,35.83432],[-75.81257,35.83596],[-75.81071,35.83687],[-75.81083,35.83851],[-75.81282,35.83924],[-75.81295,35.84088],[-75.81108,35.84179],[-75.8112,35.84343],[-75.81705,35.84399],[-75.81718,35.84563],[-75.81531,35.84654],[-75.81332,35.84581],[-75.81145,35.84671],[-75.81158,35.84835]],[[-75.79976,35.82007],[-75.80163,35.81916],[-75.80151,35.81752],[-75.79952,35.81679],[-75.79765,35.8177],[-75.79778,35.81934],[-75.79976,35.82007]]]}},{"type":"Feature","properties":{"sqmi":1.32},"geometry":{"type":"Polygon","coordinates":[[[-76.09119,35.88237],[-76.09318,35.8831],[-76.09505,35.88219],[-76.09709,35.8835],[-76.09718,35.88456],[-76.09531,35.88547],[-76.09545,35.88712],[-76.09358,35.88803],[-76.09159,35.8873],[-76.09145,35.88566],[-76.08946,35.88493],[-76.08932,35.88328],[-76.08347,35.88274],[-76.08333,35.8811],[-76.08519,35.88018],[-76.08506,35.87854],[-76.08306,35.87781],[-76.08293,35.87617],[-76.08093,35.87544],[-76.0808,35.8738],[-76.07881,35.87307],[-76.07694,35.87398],[-76.07708,35.87562],[-76.07521,35.87654],[-76.07534,35.87818],[-76.07734,35.87891],[-76.07747,35.88055],[-76.07561,35.88146],[-76.07361,35.88073],[-76.07175,35.88164],[-76.06975,35.88091],[-76.06962,35.87927],[-76.06762,35.87854],[-76.06576,35.87945],[-76.06589,35.8811],[-76.06403,35.88201],[-76.06203,35.88128],[-76.0619,35.87964],[-76.05604,35.87909],[-76.05591,35.87745],[-76.05778,35.87654],[-76.05764,35.87489],[-76.05565,35.87416],[-76.05551,35.87252],[-76.06124,35.87143],[-76.06111,35.86979],[-76.05911,35.86906],[-76.05898,35.86741],[-76.06084,35.8665],[-76.06284,35.86723],[-76.06297,35.86887],[-76.06496,35.8696],[-76.0651,35.87125],[-76.06323,35.87216],[-76.06337,35.8738],[-76.0615,35.87471],[-76.06164,35.87635],[-76.06749,35.8769],[-76.06936,35.87599],[-76.06922,35.87435],[-76.06723,35.87362],[-76.06709,35.87197],[-76.06896,35.87106],[-76.07095,35.87179],[-76.07282,35.87088],[-76.07867,35.87143],[-76.08053,35.87051],[-76.0804,35.86887],[-76.08226,35.86796],[-76.08426,35.86869],[-76.08439,35.87033],[-76.08639,35.87106],[-76.08825,35.87015],[-76.09025,35.87088],[-76.09153,35.87025],[-76.09294,35.8722],[-76.09624,35.87307],[-76.09637,35.87466],[-76.09451,35.87562],[-76.09389,35.87795],[-76.09504,35.88048],[-76.09292,35.87982],[-76.09278,35.87818],[-76.09078,35.87745],[-76.08892,35.87836],[-76.08906,35.88],[-76.09105,35.88073],[-76.09119,35.88237]]]}},{"type":"Feature","properties":{"sqmi":1.11},"geometry":{"type":"Polygon","coordinates":[[[-76.40429,35.96115],[-76.40414,35.9595],[-76.406,35.95859],[-76.41187,35.95912],[-76.41373,35.9582],[-76.41359,35.95656],[-76.41545,35.95564],[-76.4153,35.95399],[-76.41716,35.95307],[-76.41917,35.9538],[-76.41931,35.95544],[-76.42132,35.95617],[-76.42146,35.95781],[-76.4196,35.95873],[-76.41975,35.96037],[-76.41789,35.96129],[-76.41803,35.96294],[-76.42004,35.96366],[-76.42018,35.96531],[-76.42606,35.96584],[-76.4262,35.96748],[-76.42821,35.96821],[-76.43007,35.96729],[-76.42992,35.96564],[-76.42792,35.96492],[-76.42777,35.96327],[-76.4219,35.96274],[-76.42175,35.9611],[-76.42362,35.96018],[-76.42562,35.9609],[-76.42748,35.95999],[-76.42734,35.95834],[-76.4292,35.95742],[-76.4312,35.95815],[-76.43135,35.95979],[-76.42949,35.96071],[-76.42963,35.96235],[-76.43164,35.96308],[-76.4335,35.96216],[-76.43335,35.96052],[-76.43521,35.9596],[-76.43722,35.96032],[-76.43736,35.96197],[-76.43937,35.96269],[-76.43951,35.96433],[-76.44152,35.96506],[-76.44338,35.96414],[-76.44323,35.9625],[-76.44509,35.96158],[-76.4471,35.9623],[-76.44725,35.96395],[-76.44539,35.96486],[-76.44553,35.96651],[-76.44754,35.96723],[-76.44768,35.96888],[-76.44196,35.96999],[-76.43995,35.96927],[-76.43981,35.96762],[-76.4378,35.9669],[-76.43765,35.96525],[-76.43565,35.96453],[-76.43379,35.96545],[-76.43393,35.96709],[-76.43207,35.96801],[-76.43222,35.96966],[-76.43422,35.97038],[-76.43437,35.97202],[-76.42864,35.97314],[-76.42664,35.97241],[-76.42649,35.97077],[-76.42449,35.97004],[-76.42434,35.9684],[-76.41847,35.96787],[-76.41661,35.96879],[-76.4146,35.96806],[-76.41446,35.96642],[-76.41632,35.9655],[-76.41617,35.96386],[-76.41417,35.96313],[-76.41231,35.96405],[-76.4103,35.96332],[-76.41016,35.96168],[-76.40815,35.96095],[-76.40629,35.96187],[-76.40429,35.96115]]]}},{"type":"Feature","properties":{"sqmi":1.03},"geometry":{"type":"Polygon","coordinates":[[[-78.18853,34.1411],[-78.18833,34.13951],[-78.19009,34.13859],[-78.19204,34.13927],[-78.1938,34.13835],[-78.1936,34.13676],[-78.18793,34.13632],[-78.18617,34.13724],[-78.18637,34.13883],[-78.18461,34.13975],[-78.18266,34.13907],[-78.1809,34.13999],[-78.17894,34.13932],[-78.17874,34.13772],[-78.18422,34.13656],[-78.18402,34.13497],[-78.18578,34.13405],[-78.18558,34.13246],[-78.18734,34.13155],[-78.18714,34.12995],[-78.1889,34.12904],[-78.18871,34.12744],[-78.19046,34.12653],[-78.19027,34.12493],[-78.19202,34.12402],[-78.19183,34.12243],[-78.19359,34.12151],[-78.1977,34.12445],[-78.19789,34.12604],[-78.19613,34.12696],[-78.19633,34.12855],[-78.202,34.12898],[-78.2022,34.13058],[-78.20416,34.13125],[-78.20592,34.13033],[-78.21159,34.13077],[-78.21179,34.13236],[-78.21003,34.13328],[-78.21023,34.13487],[-78.20847,34.13578],[-78.20436,34.13284],[-78.2026,34.13376],[-78.20279,34.13535],[-78.20475,34.13603],[-78.20495,34.13762],[-78.20319,34.13854],[-78.19752,34.13811],[-78.19576,34.13902],[-78.19596,34.14062],[-78.1942,34.14153],[-78.1944,34.14313],[-78.19264,34.14404],[-78.19068,34.14337],[-78.19048,34.14177],[-78.18853,34.1411]],[[-78.19457,34.12947],[-78.19262,34.12879],[-78.19086,34.12971],[-78.19106,34.1313],[-78.19301,34.13198],[-78.19477,34.13106],[-78.19457,34.12947]]]}},{"type":"Feature","properties":{"sqmi":1.03},"geometry":{"type":"Polygon","coordinates":[[[-80.81491,32.53285],[-80.81629,32.53164],[-80.81816,32.53218],[-80.81954,32.53098],[-80.82376,32.53382],[-80.82514,32.53261],[-80.827,32.53316],[-80.82749,32.53491],[-80.82611,32.53611],[-80.8266,32.53786],[-80.83171,32.53775],[-80.8322,32.5395],[-80.83407,32.54004],[-80.83455,32.54179],[-80.83317,32.543],[-80.83366,32.54475],[-80.83228,32.54596],[-80.83041,32.54541],[-80.82903,32.54662],[-80.82717,32.54607],[-80.82579,32.54728],[-80.82212,32.54657],[-80.81742,32.54806],[-80.81694,32.5463],[-80.81832,32.5451],[-80.82018,32.54564],[-80.82156,32.54444],[-80.82108,32.54269],[-80.81596,32.5428],[-80.81548,32.54105],[-80.81361,32.54051],[-80.81312,32.53876],[-80.81126,32.53821],[-80.81077,32.53646],[-80.80655,32.53362],[-80.80606,32.53187],[-80.80744,32.53067],[-80.80931,32.53121],[-80.81069,32.53001],[-80.81491,32.53285]]]}},{"type":"Feature","properties":{"sqmi":1.01},"geometry":{"type":"Polygon","coordinates":[[[-80.44111,32.69126],[-80.44249,32.69006],[-80.44435,32.69061],[-80.44573,32.68942],[-80.44992,32.69227],[-80.4513,32.69107],[-80.45316,32.69162],[-80.45454,32.69042],[-80.4564,32.69097],[-80.45688,32.69272],[-80.45874,32.69327],[-80.45921,32.69502],[-80.45784,32.69621],[-80.45831,32.69796],[-80.45694,32.69916],[-80.45741,32.70091],[-80.46161,32.70375],[-80.46299,32.70256],[-80.46485,32.70311],[-80.46623,32.70191],[-80.46809,32.70246],[-80.46857,32.70421],[-80.46719,32.70541],[-80.46767,32.70715],[-80.46629,32.70835],[-80.46209,32.7055],[-80.46071,32.7067],[-80.46119,32.70844],[-80.45981,32.70964],[-80.45795,32.70909],[-80.45657,32.71029],[-80.45471,32.70974],[-80.45333,32.71093],[-80.45147,32.71038],[-80.451,32.70864],[-80.44914,32.70808],[-80.44866,32.70634],[-80.44356,32.70643],[-80.44308,32.70469],[-80.44446,32.70349],[-80.44956,32.70339],[-80.45094,32.7022],[-80.4528,32.70275],[-80.45328,32.7045],[-80.4519,32.70569],[-80.45238,32.70744],[-80.45423,32.70799],[-80.45561,32.70679],[-80.45513,32.70505],[-80.45651,32.70385],[-80.45603,32.7021],[-80.45418,32.70155],[-80.4537,32.6998],[-80.45184,32.69925],[-80.45046,32.70045],[-80.4486,32.6999],[-80.44722,32.7011],[-80.44536,32.70055],[-80.44488,32.6988],[-80.44069,32.69595],[-80.44021,32.6942],[-80.44159,32.69301],[-80.44111,32.69126]],[[-80.44578,32.69586],[-80.44626,32.6976],[-80.45136,32.69751],[-80.45274,32.69631],[-80.45226,32.69456],[-80.44716,32.69466],[-80.44578,32.69586]]]}},{"type":"Feature","properties":{"sqmi":0.78},"geometry":{"type":"Polygon","coordinates":[[[-76.13171,35.92744],[-76.13371,35.92817],[-76.13384,35.92981],[-76.13198,35.93073],[-76.12998,35.93],[-76.12984,35.92835],[-76.12784,35.92763],[-76.12598,35.92854],[-76.12611,35.93018],[-76.12811,35.93091],[-76.12825,35.93256],[-76.13025,35.93328],[-76.13211,35.93237],[-76.13411,35.9331],[-76.13425,35.93474],[-76.12852,35.93584],[-76.12865,35.93749],[-76.12679,35.9384],[-76.12479,35.93767],[-76.12292,35.93858],[-76.12306,35.94023],[-76.12119,35.94114],[-76.12133,35.94279],[-76.11946,35.9437],[-76.11746,35.94297],[-76.11733,35.94133],[-76.11919,35.94041],[-76.11906,35.93877],[-76.11706,35.93804],[-76.11692,35.9364],[-76.11493,35.93567],[-76.11479,35.93402],[-76.12052,35.93292],[-76.12038,35.93128],[-76.12225,35.93037],[-76.12211,35.92872],[-76.12011,35.92799],[-76.11998,35.92635],[-76.12571,35.92525],[-76.12557,35.92361],[-76.12357,35.92288],[-76.12344,35.92124],[-76.1253,35.92032],[-76.1273,35.92105],[-76.12917,35.92014],[-76.13503,35.92068],[-76.13516,35.92233],[-76.1333,35.92324],[-76.1313,35.92251],[-76.12944,35.92343],[-76.12957,35.92507],[-76.13157,35.9258],[-76.13171,35.92744]]]}},{"type":"Feature","properties":{"sqmi":0.77},"geometry":{"type":"Polygon","coordinates":[[[-76.90121,35.72259],[-76.89937,35.72352],[-76.89953,35.72515],[-76.90153,35.72587],[-76.90169,35.7275],[-76.89985,35.72843],[-76.90001,35.73006],[-76.89817,35.73099],[-76.89617,35.73027],[-76.896,35.72864],[-76.89785,35.72771],[-76.89769,35.72608],[-76.89568,35.72536],[-76.89552,35.72372],[-76.89352,35.72301],[-76.89336,35.72137],[-76.88751,35.72087],[-76.88735,35.71923],[-76.88535,35.71852],[-76.88519,35.71688],[-76.88319,35.71616],[-76.88303,35.71453],[-76.88487,35.7136],[-76.88471,35.71197],[-76.88271,35.71125],[-76.88255,35.70962],[-76.88439,35.70869],[-76.88639,35.70941],[-76.88823,35.70849],[-76.89024,35.7092],[-76.89208,35.70828],[-76.89792,35.70878],[-76.89808,35.71042],[-76.89624,35.71134],[-76.8964,35.71298],[-76.89456,35.7139],[-76.89472,35.71554],[-76.89672,35.71625],[-76.89688,35.71789],[-76.89889,35.71861],[-76.89905,35.72024],[-76.90105,35.72096],[-76.90121,35.72259]]]}},{"type":"Feature","properties":{"sqmi":0.77},"geometry":{"type":"Polygon","coordinates":[[[-76.93145,35.67653],[-76.92961,35.67745],[-76.92977,35.67909],[-76.93177,35.6798],[-76.93193,35.68144],[-76.93009,35.68236],[-76.93026,35.684],[-76.92457,35.68513],[-76.92474,35.68676],[-76.92289,35.68769],[-76.92089,35.68697],[-76.92073,35.68534],[-76.91873,35.68462],[-76.91857,35.68299],[-76.91657,35.68227],[-76.91473,35.6832],[-76.91489,35.68483],[-76.91305,35.68575],[-76.91105,35.68504],[-76.91089,35.6834],[-76.90504,35.6829],[-76.9032,35.68382],[-76.90336,35.68546],[-76.90152,35.68638],[-76.90168,35.68802],[-76.89984,35.68894],[-76.89784,35.68823],[-76.89768,35.68659],[-76.89952,35.68567],[-76.89936,35.68403],[-76.9012,35.68311],[-76.90104,35.68147],[-76.90672,35.68034],[-76.90656,35.67871],[-76.90456,35.67799],[-76.9044,35.67636],[-76.90624,35.67543],[-76.90824,35.67615],[-76.9084,35.67778],[-76.9104,35.6785],[-76.91056,35.68013],[-76.91257,35.68085],[-76.91825,35.67972],[-76.91809,35.67808],[-76.91993,35.67716],[-76.92193,35.67787],[-76.92377,35.67695],[-76.92361,35.67531],[-76.92545,35.67439],[-76.92745,35.6751],[-76.92929,35.67418],[-76.93513,35.67468],[-76.93529,35.67632],[-76.93345,35.67724],[-76.93145,35.67653]],[[-76.92209,35.67951],[-76.92025,35.68043],[-76.92041,35.68206],[-76.92625,35.68257],[-76.92809,35.68165],[-76.92793,35.68001],[-76.92209,35.67951]]]}},{"type":"Feature","properties":{"sqmi":0.76},"geometry":{"type":"Polygon","coordinates":[[[-80.40554,32.81069],[-80.40506,32.80894],[-80.40644,32.80775],[-80.41064,32.8106],[-80.41202,32.80941],[-80.41154,32.80766],[-80.40968,32.80711],[-80.4092,32.80536],[-80.41058,32.80417],[-80.4101,32.80242],[-80.41148,32.80123],[-80.411,32.79948],[-80.41238,32.79828],[-80.41424,32.79884],[-80.41472,32.80058],[-80.41334,32.80178],[-80.41382,32.80352],[-80.41568,32.80408],[-80.41616,32.80582],[-80.41802,32.80637],[-80.4194,32.80518],[-80.41892,32.80343],[-80.41706,32.80288],[-80.41658,32.80113],[-80.41796,32.79994],[-80.41748,32.79819],[-80.41562,32.79764],[-80.41515,32.7959],[-80.41653,32.7947],[-80.42072,32.79755],[-80.41869,32.80146],[-80.42112,32.799],[-80.41982,32.80049],[-80.4203,32.80224],[-80.4254,32.80215],[-80.42588,32.80389],[-80.4245,32.80509],[-80.42264,32.80454],[-80.42126,32.80573],[-80.42174,32.80748],[-80.4236,32.80803],[-80.42407,32.80978],[-80.42269,32.81097],[-80.4185,32.80812],[-80.41712,32.80932],[-80.41759,32.81106],[-80.41621,32.81226],[-80.41435,32.8117],[-80.40973,32.81354],[-80.41021,32.81529],[-80.41207,32.81584],[-80.41255,32.81759],[-80.41441,32.81814],[-80.41489,32.81988],[-80.41351,32.82108],[-80.41165,32.82053],[-80.41117,32.81878],[-80.40607,32.81887],[-80.40519,32.817],[-80.40611,32.81407],[-80.40787,32.81299],[-80.40721,32.81119],[-80.40554,32.81069]]]}},{"type":"Feature","properties":{"sqmi":0.66},"geometry":{"type":"Polygon","coordinates":[[[-79.74698,32.98408],[-79.74744,32.98582],[-79.74285,32.98762],[-79.74331,32.98936],[-79.74515,32.98992],[-79.74975,32.98812],[-79.75159,32.98869],[-79.75206,32.99043],[-79.7539,32.99099],[-79.75436,32.99273],[-79.75298,32.99391],[-79.75114,32.99335],[-79.74976,32.99452],[-79.74792,32.99396],[-79.74654,32.99514],[-79.7447,32.99458],[-79.74011,32.99638],[-79.73826,32.99581],[-79.7378,32.99407],[-79.7424,32.99228],[-79.74193,32.99054],[-79.74009,32.98998],[-79.73963,32.98824],[-79.73779,32.98767],[-79.73641,32.98885],[-79.73457,32.98829],[-79.72997,32.99009],[-79.72813,32.98953],[-79.72767,32.98779],[-79.7284,32.98716],[-79.72989,32.98843],[-79.73389,32.98745],[-79.73465,32.98423],[-79.73679,32.98218],[-79.73883,32.98352],[-79.74271,32.98172],[-79.74417,32.98332],[-79.74605,32.9806],[-79.75111,32.98054],[-79.75158,32.98228],[-79.7502,32.98346],[-79.74836,32.9829],[-79.74698,32.98408]]]}},{"type":"Feature","properties":{"sqmi":0.61},"geometry":{"type":"Polygon","coordinates":[[[-80.3561,32.82967],[-80.35425,32.82912],[-80.35377,32.82738],[-80.35515,32.82618],[-80.35467,32.82444],[-80.35605,32.82324],[-80.35558,32.8215],[-80.36019,32.81966],[-80.36205,32.82022],[-80.36253,32.82196],[-80.36115,32.82316],[-80.36163,32.8249],[-80.36672,32.82482],[-80.3672,32.82656],[-80.36906,32.82711],[-80.37368,32.82528],[-80.37554,32.82583],[-80.37692,32.82464],[-80.38111,32.82749],[-80.38159,32.82924],[-80.38669,32.82915],[-80.38807,32.82796],[-80.38993,32.82851],[-80.3904,32.83026],[-80.38902,32.83145],[-80.38716,32.8309],[-80.38254,32.83273],[-80.38069,32.83218],[-80.38021,32.83043],[-80.37511,32.83052],[-80.37463,32.82877],[-80.37277,32.82822],[-80.36816,32.83005],[-80.36396,32.8272],[-80.36258,32.82839],[-80.35748,32.82848],[-80.3561,32.82967]]]}},{"type":"Feature","properties":{"sqmi":0.6},"geometry":{"type":"Polygon","coordinates":[[[-76.78704,35.91311],[-76.78432,35.91512],[-76.78448,35.91676],[-76.78267,35.91807],[-76.775,35.91906],[-76.77491,35.91809],[-76.77676,35.91717],[-76.7766,35.91553],[-76.77845,35.9146],[-76.7783,35.91296],[-76.78015,35.91204],[-76.77999,35.9104],[-76.77412,35.90988],[-76.77227,35.91081],[-76.77026,35.91009],[-76.77011,35.90845],[-76.7681,35.90773],[-76.76818,35.90621],[-76.76979,35.90516],[-76.7718,35.90588],[-76.77196,35.90752],[-76.77397,35.90824],[-76.77582,35.90732],[-76.77566,35.90567],[-76.77751,35.90475],[-76.77952,35.90547],[-76.77968,35.90711],[-76.78169,35.90783],[-76.78354,35.90691],[-76.78338,35.90526],[-76.78909,35.90414],[-76.7911,35.90485],[-76.79126,35.9065],[-76.78941,35.90742],[-76.78956,35.90906],[-76.78771,35.90998],[-76.78787,35.91163],[-76.78988,35.91235],[-76.79129,35.91164],[-76.7905,35.91256],[-76.78704,35.91311]]]}},{"type":"Feature","properties":{"sqmi":0.59},"geometry":{"type":"Polygon","coordinates":[[[-75.88922,35.92641],[-75.8891,35.92476],[-75.8871,35.92403],[-75.88697,35.92239],[-75.88112,35.92183],[-75.87925,35.92274],[-75.87725,35.92201],[-75.87712,35.92036],[-75.87899,35.91945],[-75.88099,35.92019],[-75.88286,35.91928],[-75.88273,35.91764],[-75.8846,35.91673],[-75.88447,35.91508],[-75.88248,35.91435],[-75.88235,35.91271],[-75.88422,35.9118],[-75.88621,35.91253],[-75.88634,35.91417],[-75.88834,35.91491],[-75.88846,35.91655],[-75.89046,35.91728],[-75.89058,35.91893],[-75.89258,35.91966],[-75.89271,35.9213],[-75.8947,35.92203],[-75.89483,35.92368],[-75.90069,35.92423],[-75.90082,35.92588],[-75.89895,35.92679],[-75.89908,35.92843],[-75.89721,35.92934],[-75.89733,35.93098],[-75.89547,35.9319],[-75.89347,35.93116],[-75.89334,35.92952],[-75.89135,35.92879],[-75.89122,35.92714],[-75.88922,35.92641]]]}},{"type":"Feature","properties":{"sqmi":0.59},"geometry":{"type":"Polygon","coordinates":[[[-76.60879,35.79984],[-76.60864,35.7982],[-76.61049,35.79728],[-76.61034,35.79564],[-76.61219,35.79472],[-76.61804,35.79524],[-76.6182,35.79688],[-76.6202,35.7976],[-76.6259,35.79648],[-76.62575,35.79484],[-76.62375,35.79412],[-76.6236,35.79248],[-76.62545,35.79156],[-76.62745,35.79228],[-76.6276,35.79392],[-76.6296,35.79464],[-76.63145,35.79372],[-76.63345,35.79444],[-76.6336,35.79608],[-76.63175,35.797],[-76.62975,35.79628],[-76.6279,35.7972],[-76.62805,35.79884],[-76.6262,35.79976],[-76.62635,35.8014],[-76.6245,35.80232],[-76.6225,35.8016],[-76.62235,35.79996],[-76.62035,35.79924],[-76.61465,35.80036],[-76.6148,35.802],[-76.6168,35.80272],[-76.61695,35.80436],[-76.6151,35.80528],[-76.61525,35.80692],[-76.6134,35.80784],[-76.6114,35.80712],[-76.61125,35.80548],[-76.60925,35.80476],[-76.60909,35.80312],[-76.60709,35.8024],[-76.60694,35.80076],[-76.60879,35.79984]]]}},{"type":"Feature","properties":{"sqmi":0.58},"geometry":{"type":"Polygon","coordinates":[[[-76.27681,35.83573],[-76.2808,35.83367],[-76.2828,35.8344],[-76.28294,35.83604],[-76.27723,35.83714],[-76.27523,35.83642],[-76.27337,35.83733],[-76.27351,35.83897],[-76.27937,35.83951],[-76.27951,35.84115],[-76.2815,35.84188],[-76.28336,35.84096],[-76.28536,35.84169],[-76.2855,35.84333],[-76.27979,35.84443],[-76.27993,35.84607],[-76.27807,35.84699],[-76.27221,35.84645],[-76.27035,35.84737],[-76.26835,35.84664],[-76.26822,35.845],[-76.26622,35.84427],[-76.26608,35.84263],[-76.26408,35.84191],[-76.26394,35.84026],[-76.2658,35.83935],[-76.26566,35.83771],[-76.26752,35.83679],[-76.26952,35.83752],[-76.27137,35.83661],[-76.27123,35.83497],[-76.27309,35.83405],[-76.27509,35.83478],[-76.27791,35.83421],[-76.27681,35.83573]],[[-76.27379,35.84225],[-76.27393,35.8439],[-76.27593,35.84462],[-76.27779,35.84371],[-76.27765,35.84207],[-76.27565,35.84134],[-76.27379,35.84225]]]}},{"type":"Feature","properties":{"sqmi":0.54},"geometry":{"type":"Polygon","coordinates":[[[-80.2473,32.63043],[-80.24777,32.63218],[-80.25195,32.63502],[-80.25242,32.63677],[-80.25427,32.63732],[-80.25475,32.63907],[-80.25337,32.64026],[-80.25152,32.63971],[-80.25104,32.63796],[-80.24687,32.63511],[-80.24549,32.63631],[-80.24041,32.6364],[-80.23994,32.63465],[-80.23809,32.6341],[-80.23761,32.63235],[-80.23899,32.63116],[-80.23852,32.62941],[-80.23667,32.62886],[-80.23206,32.6307],[-80.23021,32.63014],[-80.22974,32.6284],[-80.22789,32.62785],[-80.22741,32.6261],[-80.22879,32.62491],[-80.22832,32.62316],[-80.22647,32.62261],[-80.22599,32.62087],[-80.22737,32.61967],[-80.22922,32.62022],[-80.22969,32.62197],[-80.23154,32.62252],[-80.23202,32.62427],[-80.23064,32.62546],[-80.23111,32.62721],[-80.23343,32.62735],[-80.23365,32.62814],[-80.236,32.62759],[-80.23638,32.62488],[-80.23522,32.62365],[-80.23709,32.62418],[-80.23757,32.62592],[-80.24174,32.62877],[-80.24222,32.63052],[-80.2473,32.63043]]]}},{"type":"Feature","properties":{"sqmi":0.53},"geometry":{"type":"Polygon","coordinates":[[[-76.91474,35.86025],[-76.91289,35.86118],[-76.91305,35.86282],[-76.91121,35.86375],[-76.91137,35.86539],[-76.90952,35.86631],[-76.90968,35.86795],[-76.90783,35.86888],[-76.90582,35.86816],[-76.90398,35.86909],[-76.89844,35.86669],[-76.8998,35.86601],[-76.90181,35.86673],[-76.90365,35.8658],[-76.90566,35.86652],[-76.90751,35.8656],[-76.90735,35.86395],[-76.9092,35.86303],[-76.90904,35.86139],[-76.90703,35.86067],[-76.90518,35.8616],[-76.90534,35.86324],[-76.90349,35.86416],[-76.90148,35.86345],[-76.90132,35.86181],[-76.90317,35.86088],[-76.90301,35.85924],[-76.901,35.85853],[-76.90084,35.85689],[-76.90269,35.85596],[-76.9047,35.85668],[-76.90486,35.85832],[-76.90687,35.85903],[-76.90871,35.85811],[-76.90855,35.85647],[-76.9104,35.85554],[-76.91024,35.8539],[-76.91208,35.85298],[-76.91409,35.85369],[-76.91594,35.85277],[-76.91578,35.85113],[-76.91762,35.8502],[-76.91963,35.85092],[-76.91979,35.85256],[-76.91795,35.85348],[-76.91811,35.85512],[-76.91626,35.85605],[-76.91642,35.85769],[-76.91458,35.85861],[-76.91474,35.86025]]]}},{"type":"Feature","properties":{"sqmi":0.51},"geometry":{"type":"Polygon","coordinates":[[[-76.80178,35.90269],[-76.80719,35.90887],[-76.805,35.90824],[-76.80315,35.90916],[-76.80331,35.9108],[-76.80146,35.91173],[-76.80162,35.91337],[-76.79977,35.91429],[-76.79992,35.91594],[-76.79421,35.91707],[-76.79437,35.91871],[-76.79252,35.91963],[-76.79051,35.91891],[-76.79035,35.91727],[-76.7922,35.91635],[-76.79204,35.91471],[-76.79004,35.91399],[-76.78818,35.91491],[-76.78683,35.91443],[-76.79205,35.91256],[-76.79327,35.90721],[-76.79512,35.90629],[-76.79496,35.90465],[-76.80178,35.90269]],[[-76.79728,35.90865],[-76.79543,35.90957],[-76.79559,35.91122],[-76.7976,35.91193],[-76.79945,35.91101],[-76.79929,35.90937],[-76.79728,35.90865]]]}},{"type":"Feature","properties":{"sqmi":0.5},"geometry":{"type":"Polygon","coordinates":[[[-77.61708,34.52317],[-77.61886,34.52226],[-77.61868,34.52065],[-77.61458,34.51767],[-77.6144,34.51607],[-77.61618,34.51515],[-77.62189,34.51561],[-77.62367,34.5147],[-77.62349,34.5131],[-77.62528,34.51218],[-77.6251,34.51058],[-77.62688,34.50966],[-77.62884,34.51035],[-77.62902,34.51195],[-77.62724,34.51287],[-77.62742,34.51447],[-77.62564,34.51539],[-77.62582,34.51699],[-77.62778,34.51768],[-77.62796,34.51928],[-77.62618,34.5202],[-77.62636,34.5218],[-77.62832,34.52249],[-77.6285,34.5241],[-77.62672,34.52501],[-77.62101,34.52455],[-77.61922,34.52546],[-77.61726,34.52478],[-77.61548,34.52569],[-77.61351,34.525],[-77.61333,34.5234],[-77.61512,34.52248],[-77.61708,34.52317]]]}},{"type":"Feature","properties":{"sqmi":0.48},"geometry":{"type":"Polygon","coordinates":[[[-76.11412,35.92581],[-76.11225,35.92672],[-76.11239,35.92836],[-76.11439,35.92909],[-76.11452,35.93074],[-76.10879,35.93183],[-76.10893,35.93348],[-76.10706,35.93439],[-76.10506,35.93366],[-76.10493,35.93202],[-76.10679,35.9311],[-76.10666,35.92946],[-76.10852,35.92855],[-76.10839,35.9269],[-76.10639,35.92617],[-76.10626,35.92453],[-76.11198,35.92343],[-76.11185,35.92179],[-76.10985,35.92106],[-76.10972,35.91942],[-76.11158,35.9185],[-76.11145,35.91686],[-76.11331,35.91595],[-76.11318,35.9143],[-76.11504,35.91339],[-76.11704,35.91412],[-76.11717,35.91576],[-76.11917,35.91649],[-76.11931,35.91814],[-76.11744,35.91905],[-76.11758,35.92069],[-76.11571,35.92161],[-76.11585,35.92325],[-76.11785,35.92398],[-76.11798,35.92562],[-76.11612,35.92654],[-76.11412,35.92581]]]}},{"type":"Feature","properties":{"sqmi":0.44},"geometry":{"type":"Polygon","coordinates":[[[-80.89757,32.52154],[-80.89806,32.52329],[-80.89668,32.5245],[-80.89481,32.52395],[-80.89343,32.52516],[-80.89392,32.52691],[-80.89254,32.52812],[-80.89303,32.52987],[-80.89165,32.53108],[-80.89214,32.53283],[-80.89076,32.53404],[-80.88889,32.53349],[-80.8884,32.53174],[-80.88978,32.53053],[-80.88929,32.52878],[-80.88742,32.52824],[-80.88693,32.52649],[-80.88182,32.52661],[-80.88133,32.52486],[-80.88271,32.52365],[-80.88222,32.5219],[-80.8836,32.52069],[-80.88783,32.52353],[-80.88921,32.52232],[-80.89108,32.52287],[-80.89246,32.52166],[-80.89197,32.51991],[-80.89335,32.5187],[-80.89847,32.51858],[-80.89895,32.52033],[-80.89757,32.52154]]]}},{"type":"Feature","properties":{"sqmi":0.43},"geometry":{"type":"Polygon","coordinates":[[[-80.87483,32.52618],[-80.86971,32.5263],[-80.86923,32.52455],[-80.86736,32.52401],[-80.86687,32.52225],[-80.86825,32.52105],[-80.86776,32.5193],[-80.86914,32.51809],[-80.8706,32.51851],[-80.8715,32.52038],[-80.87012,32.52159],[-80.87061,32.52334],[-80.87247,32.52389],[-80.87385,32.52268],[-80.87444,32.52136],[-80.87345,32.52085],[-80.87475,32.51972],[-80.87426,32.51797],[-80.87239,32.51743],[-80.8719,32.51568],[-80.87328,32.51447],[-80.87515,32.51501],[-80.87653,32.51381],[-80.87604,32.51205],[-80.87742,32.51085],[-80.87929,32.51139],[-80.87978,32.51314],[-80.8784,32.51435],[-80.87889,32.5161],[-80.88076,32.51664],[-80.88124,32.5184],[-80.87986,32.5196],[-80.878,32.51906],[-80.87661,32.52027],[-80.8771,32.52202],[-80.87897,32.52256],[-80.87946,32.52431],[-80.87808,32.52552],[-80.87857,32.52727],[-80.87719,32.52848],[-80.87532,32.52793],[-80.87483,32.52618]]]}},{"type":"Feature","properties":{"sqmi":0.37},"geometry":{"type":"Polygon","coordinates":[[[-76.13831,35.98407],[-76.13817,35.98242],[-76.14004,35.98151],[-76.13991,35.97986],[-76.14177,35.97895],[-76.14377,35.97968],[-76.14391,35.98132],[-76.14591,35.98205],[-76.14605,35.9837],[-76.14805,35.98443],[-76.14818,35.98607],[-76.15019,35.9868],[-76.15032,35.98844],[-76.15232,35.98917],[-76.15246,35.99082],[-76.14673,35.99192],[-76.14472,35.99119],[-76.14459,35.98954],[-76.14645,35.98863],[-76.14632,35.98699],[-76.14432,35.98626],[-76.14418,35.98461],[-76.14218,35.98388],[-76.14031,35.9848],[-76.14045,35.98644],[-76.14245,35.98717],[-76.14259,35.98881],[-76.13685,35.98991],[-76.13485,35.98918],[-76.13471,35.98754],[-76.13658,35.98663],[-76.13644,35.98498],[-76.13831,35.98407]]]}},{"type":"Feature","properties":{"sqmi":0.36},"geometry":{"type":"Polygon","coordinates":[[[-80.39497,32.82199],[-80.39635,32.82079],[-80.39587,32.81905],[-80.40049,32.81721],[-80.40001,32.81547],[-80.4014,32.81427],[-80.40325,32.81482],[-80.40463,32.81363],[-80.40557,32.81391],[-80.40475,32.81687],[-80.40373,32.81657],[-80.40235,32.81776],[-80.40283,32.81951],[-80.39821,32.82135],[-80.39869,32.82309],[-80.40055,32.82365],[-80.40103,32.82539],[-80.40219,32.82574],[-80.39898,32.83039],[-80.39688,32.82897],[-80.3955,32.83017],[-80.39598,32.83191],[-80.3946,32.83311],[-80.39274,32.83255],[-80.39226,32.83081],[-80.39364,32.82961],[-80.39317,32.82787],[-80.39131,32.82732],[-80.39083,32.82557],[-80.39221,32.82438],[-80.39407,32.82493],[-80.39455,32.82667],[-80.39641,32.82723],[-80.39779,32.82603],[-80.39731,32.82429],[-80.39545,32.82373],[-80.39497,32.82199]]]}},{"type":"Feature","properties":{"sqmi":0.35},"geometry":{"type":"Polygon","coordinates":[[[-80.68929,32.59899],[-80.6888,32.59724],[-80.69018,32.59604],[-80.6897,32.59429],[-80.69108,32.59309],[-80.69294,32.59364],[-80.69343,32.59539],[-80.69853,32.59528],[-80.69902,32.59703],[-80.70088,32.59757],[-80.70226,32.59637],[-80.70178,32.59462],[-80.70316,32.59342],[-80.70502,32.59396],[-80.70551,32.59571],[-80.70413,32.59692],[-80.70461,32.59867],[-80.70323,32.59987],[-80.70137,32.59932],[-80.70015,32.60038],[-80.69253,32.59834],[-80.69115,32.59954],[-80.69163,32.60129],[-80.69259,32.60157],[-80.69044,32.60318],[-80.68839,32.60194],[-80.68701,32.60315],[-80.68515,32.6026],[-80.68466,32.60085],[-80.68604,32.59965],[-80.68791,32.6002],[-80.68929,32.59899]]]}},{"type":"Feature","properties":{"sqmi":0.33},"geometry":{"type":"Polygon","coordinates":[[[-75.84602,35.79247],[-75.84801,35.7932],[-75.84988,35.79229],[-75.85572,35.79285],[-75.85758,35.79194],[-75.85957,35.79267],[-75.8597,35.79431],[-75.85783,35.79522],[-75.85796,35.79686],[-75.8561,35.79777],[-75.85025,35.79721],[-75.84839,35.79812],[-75.8464,35.79739],[-75.84453,35.79829],[-75.84254,35.79756],[-75.84242,35.79592],[-75.84043,35.79519],[-75.8403,35.79355],[-75.84217,35.79264],[-75.84416,35.79337],[-75.84602,35.79247]]]}},{"type":"Feature","properties":{"sqmi":0.33},"geometry":{"type":"Polygon","coordinates":[[[-81.04655,32.51325],[-81.04793,32.51204],[-81.04744,32.51029],[-81.04882,32.50908],[-81.05306,32.51191],[-81.05444,32.5107],[-81.05395,32.50895],[-81.05533,32.50774],[-81.05721,32.50828],[-81.0577,32.51003],[-81.05632,32.51124],[-81.05681,32.513],[-81.05543,32.51421],[-81.05592,32.51596],[-81.05454,32.51717],[-81.04941,32.5173],[-81.04803,32.51851],[-81.04852,32.52026],[-81.04714,32.52147],[-81.04527,32.52093],[-81.04477,32.51918],[-81.04615,32.51797],[-81.04566,32.51621],[-81.04704,32.515],[-81.04655,32.51325]]]}},{"type":"Feature","properties":{"sqmi":0.32},"geometry":{"type":"Polygon","coordinates":[[[-80.34262,32.82406],[-80.3431,32.8258],[-80.34496,32.82636],[-80.34634,32.82516],[-80.34586,32.82342],[-80.344,32.82286],[-80.34353,32.82112],[-80.34815,32.81929],[-80.35234,32.82214],[-80.35281,32.82388],[-80.35143,32.82508],[-80.34958,32.82452],[-80.3482,32.82572],[-80.34867,32.82746],[-80.34729,32.82866],[-80.34544,32.8281],[-80.34406,32.82929],[-80.33986,32.82644],[-80.33848,32.82764],[-80.33339,32.82772],[-80.33291,32.82598],[-80.33753,32.82414],[-80.34262,32.82406]]]}},{"type":"Feature","properties":{"sqmi":0.3},"geometry":{"type":"Polygon","coordinates":[[[-75.92631,35.9544],[-75.92444,35.95531],[-75.92244,35.95458],[-75.92057,35.95549],[-75.91858,35.95476],[-75.91845,35.95311],[-75.91645,35.95238],[-75.91632,35.95073],[-75.91433,35.95],[-75.91246,35.95091],[-75.91046,35.95018],[-75.91033,35.94853],[-75.9122,35.94762],[-75.91806,35.94818],[-75.91993,35.94727],[-75.9198,35.94562],[-75.92167,35.94471],[-75.92367,35.94545],[-75.9238,35.94709],[-75.92193,35.948],[-75.92206,35.94965],[-75.92406,35.95038],[-75.92418,35.95202],[-75.92618,35.95276],[-75.92631,35.9544]]]}},{"type":"Feature","properties":{"sqmi":0.3},"geometry":{"type":"Polygon","coordinates":[[[-76.17567,35.9897],[-76.16994,35.99081],[-76.17007,35.99245],[-76.16821,35.99337],[-76.16621,35.99264],[-76.16607,35.99099],[-76.16407,35.99026],[-76.15833,35.99136],[-76.15633,35.99063],[-76.15619,35.98899],[-76.15806,35.98807],[-76.16006,35.9888],[-76.16193,35.98789],[-76.1678,35.98843],[-76.16966,35.98752],[-76.16953,35.98587],[-76.17139,35.98496],[-76.17726,35.9855],[-76.1774,35.98714],[-76.17554,35.98806],[-76.17567,35.9897]]]}},{"type":"Feature","properties":{"sqmi":0.3},"geometry":{"type":"Polygon","coordinates":[[[-81.15461,28.99275],[-81.15011,28.99476],[-81.1483,28.99426],[-81.14782,28.9925],[-81.15231,28.99049],[-81.15413,28.99099],[-81.15546,28.98974],[-81.15728,28.99024],[-81.15862,28.98898],[-81.15814,28.98723],[-81.15948,28.98597],[-81.16359,28.98873],[-81.16407,28.99048],[-81.16588,28.99098],[-81.16636,28.99274],[-81.16187,28.99475],[-81.16005,28.99425],[-81.15958,28.99249],[-81.15776,28.99199],[-81.15642,28.99325],[-81.15461,28.99275]]]}},{"type":"Feature","properties":{"sqmi":0.29},"geometry":{"type":"Polygon","coordinates":[[[-75.86741,35.79396],[-75.8694,35.79469],[-75.86952,35.79633],[-75.87151,35.79707],[-75.87164,35.79871],[-75.86977,35.79961],[-75.8699,35.80125],[-75.86804,35.80216],[-75.86816,35.8038],[-75.8663,35.80471],[-75.86431,35.80398],[-75.86418,35.80234],[-75.86219,35.80161],[-75.85647,35.80269],[-75.85063,35.80213],[-75.8505,35.80049],[-75.85237,35.79958],[-75.85821,35.80014],[-75.86008,35.79923],[-75.86592,35.79979],[-75.86778,35.79888],[-75.86766,35.79724],[-75.86567,35.79651],[-75.86554,35.79487],[-75.86741,35.79396]]]}},{"type":"Feature","properties":{"sqmi":0.29},"geometry":{"type":"Polygon","coordinates":[[[-76.88343,35.73837],[-76.88327,35.73673],[-76.88126,35.73602],[-76.8811,35.73438],[-76.88295,35.73346],[-76.88279,35.73182],[-76.88078,35.73111],[-76.88062,35.72947],[-76.87862,35.72875],[-76.87846,35.72712],[-76.87646,35.7264],[-76.8763,35.72476],[-76.87814,35.72384],[-76.88014,35.72456],[-76.8803,35.72619],[-76.88615,35.7267],[-76.88631,35.72834],[-76.88831,35.72905],[-76.88847,35.73069],[-76.88663,35.73161],[-76.88679,35.73325],[-76.88495,35.73417],[-76.88511,35.73581],[-76.88711,35.73652],[-76.88727,35.73816],[-76.88543,35.73908],[-76.88343,35.73837]]]}},{"type":"Feature","properties":{"sqmi":0.28},"geometry":{"type":"Polygon","coordinates":[[[-80.69171,32.60774],[-80.68984,32.60719],[-80.68936,32.60544],[-80.69561,32.59967],[-80.70001,32.6005],[-80.70104,32.60312],[-80.70009,32.6043],[-80.70116,32.60331],[-80.70112,32.60246],[-80.70234,32.60282],[-80.70372,32.60162],[-80.70558,32.60216],[-80.70606,32.60391],[-80.70468,32.60512],[-80.70282,32.60457],[-80.70144,32.60577],[-80.70192,32.60752],[-80.70054,32.60872],[-80.69868,32.60818],[-80.6982,32.60643],[-80.69398,32.60359],[-80.6926,32.60479],[-80.69309,32.60654],[-80.69171,32.60774]]]}},{"type":"Feature","properties":{"sqmi":0.26},"geometry":{"type":"Polygon","coordinates":[[[-76.93304,35.84936],[-76.93505,35.85008],[-76.93521,35.85172],[-76.92951,35.85285],[-76.9275,35.85214],[-76.92566,35.85306],[-76.92582,35.8547],[-76.92397,35.85563],[-76.92196,35.85491],[-76.9218,35.85327],[-76.92365,35.85235],[-76.92349,35.85071],[-76.92919,35.84957],[-76.92903,35.84793],[-76.93087,35.84701],[-76.93071,35.84537],[-76.93256,35.84444],[-76.93842,35.84495],[-76.93858,35.84659],[-76.93674,35.84751],[-76.93473,35.8468],[-76.93288,35.84772],[-76.93304,35.84936]]]}},{"type":"Feature","properties":{"sqmi":0.26},"geometry":{"type":"Polygon","coordinates":[[[-81.4507,30.1524],[-81.45255,30.15291],[-81.45304,30.15467],[-81.45488,30.15518],[-81.45537,30.15694],[-81.45402,30.15819],[-81.45451,30.15995],[-81.45316,30.16119],[-81.45365,30.16295],[-81.45549,30.16346],[-81.45598,30.16522],[-81.45463,30.16647],[-81.45045,30.16369],[-81.44996,30.16193],[-81.45131,30.16068],[-81.45082,30.15892],[-81.44578,30.15915],[-81.44529,30.15739],[-81.44664,30.15614],[-81.44849,30.15665],[-81.44984,30.15541],[-81.44935,30.15365],[-81.4507,30.1524]]]}},{"type":"Feature","properties":{"sqmi":0.25},"geometry":{"type":"Polygon","coordinates":[[[-79.57244,33.11605],[-79.5706,33.11548],[-79.57014,33.11375],[-79.57152,33.11257],[-79.56876,33.10853],[-79.57014,33.10736],[-79.57197,33.10792],[-79.57244,33.10966],[-79.57427,33.11022],[-79.57565,33.10905],[-79.57519,33.10731],[-79.57657,33.10614],[-79.57841,33.1067],[-79.57887,33.10844],[-79.58071,33.10901],[-79.58117,33.11074],[-79.57979,33.11192],[-79.58025,33.11366],[-79.57887,33.11483],[-79.57473,33.11196],[-79.57336,33.11314],[-79.57382,33.11488],[-79.57244,33.11605]]]}},{"type":"Feature","properties":{"sqmi":0.25},"geometry":{"type":"Polygon","coordinates":[[[-79.68224,33.04585],[-79.68362,33.04467],[-79.68315,33.04293],[-79.68453,33.04175],[-79.68867,33.04462],[-79.68914,33.04636],[-79.6942,33.04631],[-79.69466,33.04805],[-79.6965,33.04861],[-79.69696,33.05035],[-79.69237,33.05214],[-79.69053,33.05158],[-79.69006,33.04984],[-79.68822,33.04928],[-79.68776,33.04754],[-79.6827,33.04759],[-79.68224,33.04585]]]}},{"type":"Feature","properties":{"sqmi":0.22},"geometry":{"type":"Polygon","coordinates":[[[-77.14539,34.9095],[-77.14522,34.90789],[-77.14325,34.90719],[-77.14308,34.90557],[-77.14489,34.90466],[-77.14686,34.90536],[-77.14867,34.90444],[-77.15442,34.90493],[-77.15459,34.90654],[-77.15278,34.90746],[-77.15295,34.90907],[-77.15492,34.90977],[-77.15509,34.91139],[-77.15328,34.9123],[-77.15131,34.9116],[-77.15114,34.90999],[-77.14917,34.90929],[-77.14736,34.9102],[-77.14539,34.9095]]]}},{"type":"Feature","properties":{"sqmi":0.22},"geometry":{"type":"Polygon","coordinates":[[[-77.32139,34.90187],[-77.31958,34.90279],[-77.31976,34.9044],[-77.31795,34.90532],[-77.31598,34.90462],[-77.31581,34.903],[-77.31383,34.90231],[-77.31366,34.90069],[-77.31546,34.89978],[-77.31529,34.89816],[-77.31709,34.89724],[-77.31692,34.89563],[-77.31873,34.89471],[-77.31855,34.8931],[-77.32036,34.89218],[-77.32233,34.89288],[-77.3225,34.89449],[-77.3207,34.89541],[-77.32087,34.89703],[-77.31907,34.89794],[-77.31924,34.89956],[-77.32122,34.90025],[-77.32139,34.90187]]]}},{"type":"Feature","properties":{"sqmi":0.22},"geometry":{"type":"Polygon","coordinates":[[[-80.40342,32.83412],[-80.40156,32.83357],[-80.40108,32.83182],[-80.39946,32.83134],[-80.40091,32.82829],[-80.40427,32.82475],[-80.40846,32.8276],[-80.40894,32.82935],[-80.40756,32.83054],[-80.40804,32.83229],[-80.40342,32.83412]]]}},{"type":"Feature","properties":{"sqmi":0.21},"geometry":{"type":"Polygon","coordinates":[[[-80.23028,32.84344],[-80.23075,32.84518],[-80.22938,32.84637],[-80.22985,32.84812],[-80.22847,32.84931],[-80.22338,32.84939],[-80.22291,32.84765],[-80.22429,32.84646],[-80.22381,32.84471],[-80.22196,32.84416],[-80.22148,32.84241],[-80.22286,32.84122],[-80.22239,32.83948],[-80.22377,32.83829],[-80.22562,32.83884],[-80.2261,32.84059],[-80.22472,32.84178],[-80.22519,32.84352],[-80.23028,32.84344]]]}}]}